{"type":"FeatureCollection","features":[{"type":"Feature","geometry":{"type":"Point","coordinates":[55.6821,26.025461]},"properties":{"event_id":1,"data_org":"Green","date":"2026-03-01T00:00:00.000Z","reprt_time":"","vesselname":"Hercules Star","IMO":"","MMSI":"","flag":"Gibraltar","location":"17 NM NW of Mina Saqr, UAE","latitude":26.025461,"longitude":55.6821,"coord_type":"exact","source_1":"https://x.com/UK_MTO/status/2028099126475288999","source_2":"","sources":"","GlobalID":"c622a8d7-1746-4b4d-9ab6-243ea7170405","CreationDa":"2026-09-28T00:00:00.000Z","Creator":"smcree_understandingwar","EditDate":"2026-09-28T00:00:00.000Z","Editor":"smcree_understandingwar"}},{"type":"Feature","geometry":{"type":"Point","coordinates":[54.66867,25.433039]},"properties":{"event_id":3,"data_org":"Green","date":"2026-03-01T00:00:00.000Z","reprt_time":"","vesselname":"Unspecified","IMO":"","MMSI":"","flag":"","location":"35 NM W of Sharjah, UAE","latitude":25.433039,"longitude":54.66867,"coord_type":"general neighborhood","source_1":"https://www.ukmto.org/-/media/ukmto/products/20260301-ukmto_warning_007-26.pdf?rev=1310942307354054be18457486b45038","source_2":"","sources":"","GlobalID":"0f3a18e7-cba0-4479-b594-7c4f68c8039d","CreationDa":"2026-09-28T00:00:00.000Z","Creator":"smcree_understandingwar","EditDate":"2026-09-28T00:00:00.000Z","Editor":"smcree_understandingwar"}},{"type":"Feature","geometry":{"type":"Point","coordinates":[58.503089,24.53038]},"properties":{"event_id":4,"data_org":"Green","date":"2026-03-01T00:00:00.000Z","reprt_time":"","vesselname":"MKD Vyom","IMO":"","MMSI":"","flag":"Marshall Islands","location":"44.4 NM NW of Muscat, Oman","latitude":24.53038,"longitude":58.503089,"coord_type":"exact","source_1":"https://x.com/MarineTraffic/status/2028104988845543654?ref_src=twsrc%5Egoogle%7Ctwcamp%5Eserp%7Ctwgr%5Etweet","source_2":"https://t.me/farsna/414226","sources":"","GlobalID":"a2c2912c-0d55-4815-ab85-3ab2f90940c3","CreationDa":"2026-09-28T00:00:00.000Z","Creator":"smcree_understandingwar","EditDate":"2026-09-28T00:00:00.000Z","Editor":"smcree_understandingwar"}},{"type":"Feature","geometry":{"type":"Point","coordinates":[56.37738900000001,26.519742]},"properties":{"event_id":8,"data_org":"Green","date":"2026-03-02T00:00:00.000Z","reprt_time":"","vesselname":"Athen Nova","IMO":"","MMSI":"","flag":"Honduras","location":"Strait of Hormuz","latitude":26.519742,"longitude":56.377389,"coord_type":"general neighborhood","source_1":"https://x.com/JoeTruzman/status/2028544254696620415?s=20","source_2":"","sources":"","GlobalID":"c2715f09-7dd6-465c-b863-0a55c2a631bd","CreationDa":"2026-09-28T00:00:00.000Z","Creator":"smcree_understandingwar","EditDate":"2026-09-28T00:00:00.000Z","Editor":"smcree_understandingwar"}},{"type":"Feature","geometry":{"type":"Point","coordinates":[56.502779000000004,25.208300000000005]},"properties":{"event_id":10,"data_org":"Green","date":"2026-03-03T00:00:00.000Z","reprt_time":"","vesselname":"Gold Oak","IMO":"","MMSI":"","flag":"Panama","location":"7 NM E of Fujairah, UAE","latitude":25.2083,"longitude":56.502779,"coord_type":"exact","source_1":"https://x.com/UK_MTO/status/2029240527879655542","source_2":"","sources":"","GlobalID":"3dccee0c-bb51-4b31-9114-73dc1c23b12f","CreationDa":"2026-09-28T00:00:00.000Z","Creator":"smcree_understandingwar","EditDate":"2026-09-28T00:00:00.000Z","Editor":"smcree_understandingwar"}},{"type":"Feature","geometry":{"type":"Point","coordinates":[56.5635,25.281699999999997]},"properties":{"event_id":11,"data_org":"Green","date":"2026-03-03T00:00:00.000Z","reprt_time":"","vesselname":"Libra Trader","IMO":"","MMSI":"","flag":"Marshall Islands","location":"10 NM E of Fujairah, UAE","latitude":25.2817,"longitude":56.5635,"coord_type":"exact","source_1":"https://x.com/UK_MTO/status/2029240527879655542","source_2":"","sources":"","GlobalID":"608a9f69-dcac-414f-a171-93f3d46669ce","CreationDa":"2026-09-28T00:00:00.000Z","Creator":"smcree_understandingwar","EditDate":"2026-09-28T00:00:00.000Z","Editor":"smcree_understandingwar"}},{"type":"Feature","geometry":{"type":"Point","coordinates":[60.895599999999995,22.798899999999996]},"properties":{"event_id":12,"data_org":"Green","date":"2026-03-03T00:00:00.000Z","reprt_time":"","vesselname":"Unspecified Vessel","IMO":"","MMSI":"","flag":"","location":"137 NM E of Muscat, Oman","latitude":22.7989,"longitude":60.8956,"coord_type":"general neighborhood","source_1":"https://x.com/UK_MTO/status/2029240527879655542","source_2":"","sources":"","GlobalID":"65f1332d-c851-4423-aeb8-2d3bb425dca7","CreationDa":"2026-09-28T00:00:00.000Z","Creator":"smcree_understandingwar","EditDate":"2026-09-28T00:00:00.000Z","Editor":"smcree_understandingwar"}},{"type":"Feature","geometry":{"type":"Point","coordinates":[56.3458,26.40529999999999]},"properties":{"event_id":13,"data_org":"Green","date":"2026-03-04T00:00:00.000Z","reprt_time":"","vesselname":"Safeen Prestige","IMO":"","MMSI":"","flag":"Malta","location":"2 NM off Omani Coast","latitude":26.4053,"longitude":56.3458,"coord_type":"exact","source_1":"https://x.com/UK_MTO/status/2029240527879655542/photo/1","source_2":"","sources":"","GlobalID":"e33e0a53-a78b-40c3-9364-f01e64a3f28f","CreationDa":"2026-09-28T00:00:00.000Z","Creator":"smcree_understandingwar","EditDate":"2026-09-28T00:00:00.000Z","Editor":"smcree_understandingwar"}},{"type":"Feature","geometry":{"type":"Point","coordinates":[54.689941,25.203698999999993]},"properties":{"event_id":14,"data_org":"Green","date":"2026-03-04T00:00:00.000Z","reprt_time":"","vesselname":"MSC Grace","IMO":"","MMSI":"","flag":"Liberia","location":"20 NM W of Dubai, UAE","latitude":25.203699,"longitude":54.689941,"coord_type":"exact","source_1":"https://x.com/UK_MTO/status/2029240527879655542","source_2":"https://www.marinetraffic.com/en/ais/details/ships/shipid:10176590/mmsi:636025634/imo:9987366/vessel:MSC%20GRACE","sources":"","GlobalID":"db86e712-5f6f-428c-9254-a53a07641cc4","CreationDa":"2026-09-28T00:00:00.000Z","Creator":"smcree_understandingwar","EditDate":"2026-09-28T00:00:00.000Z","Editor":"smcree_understandingwar"}},{"type":"Feature","geometry":{"type":"Point","coordinates":[48.84290000000001,29.55999999999999]},"properties":{"event_id":15,"data_org":"Green","date":"2026-03-04T00:00:00.000Z","reprt_time":"","vesselname":"Unspecified Tanker","IMO":"","MMSI":"","flag":"","location":"30 NM SE of Mubarak al Kabeer, Kuwait (Iraqi Territorial Waters)","latitude":29.56,"longitude":48.8429,"coord_type":"exact","source_1":"https://x.com/UK_MTO/status/2029603749413441837","source_2":"","sources":"","GlobalID":"42af1fa9-cb9b-4a9c-84aa-bb46b6c8ec8d","CreationDa":"2026-09-28T00:00:00.000Z","Creator":"smcree_understandingwar","EditDate":"2026-09-28T00:00:00.000Z","Editor":"smcree_understandingwar"}},{"type":"Feature","geometry":{"type":"Point","coordinates":[48.7211,29.599599999999988]},"properties":{"event_id":16,"data_org":"Green","date":"2026-03-05T00:00:00.000Z","reprt_time":"","vesselname":"Unspecified Crude Oil Tanker","IMO":"","MMSI":"","flag":"Bahamas","location":"Khor al Zubair port, Iraq","latitude":29.5996,"longitude":48.7211,"coord_type":"exact","source_1":"https://www.reuters.com/world/middle-east/more-tankers-come-under-attack-us-iran-conflict-spreads-region-2026-03-05/","source_2":"","sources":"","GlobalID":"73344d81-390c-4bf1-8f94-f084195020c7","CreationDa":"2026-09-28T00:00:00.000Z","Creator":"smcree_understandingwar","EditDate":"2026-09-28T00:00:00.000Z","Editor":"smcree_understandingwar"}},{"type":"Feature","geometry":{"type":"Point","coordinates":[56.38366700000001,26.429792000000003]},"properties":{"event_id":17,"data_org":"Green","date":"2026-03-06T00:00:00.000Z","reprt_time":"","vesselname":"Mussafah 2","IMO":"","MMSI":"","flag":"UAE","location":"6 NM N of Oman in the Strait of Hormuz","latitude":26.429792,"longitude":56.383667,"coord_type":"exact","source_1":"https://x.com/UK_MTO/status/2029915997096829122","source_2":"https://www.bbc.com/news/live/ceqvwrydzpqt?post=asset%3A7fe0e542-3a75-49be-846d-7058d1999140#post","sources":"https://maritime-executive.com/article/salvage-tug-reported-attacked-near-straits-of-hormuz-with-crew-feared-dead","GlobalID":"7110ec42-3f81-4439-91ef-d23d018cc6db","CreationDa":"2026-09-28T00:00:00.000Z","Creator":"smcree_understandingwar","EditDate":"2026-09-28T00:00:00.000Z","Editor":"smcree_understandingwar"}},{"type":"Feature","geometry":{"type":"Point","coordinates":[49.768198,27.143306]},"properties":{"event_id":19,"data_org":"Green","date":"2026-03-07T00:00:00.000Z","reprt_time":"","vesselname":"Louise P","IMO":"","MMSI":"","flag":"Marshall Islands","location":"Off Coast of Jubayl","latitude":27.143306,"longitude":49.768198,"coord_type":"","source_1":"https://x.com/UK_MTO/status/2030305425548046702","source_2":"https://www.middleeasteye.net/live-blog/live-blog-update/irgc-says-it-attacked-marshall-islands-flagged-oil-tanker","sources":"","GlobalID":"de5f46a3-d7b7-4436-9116-74998d5ec377","CreationDa":"2026-09-28T00:00:00.000Z","Creator":"smcree_understandingwar","EditDate":"2026-09-28T00:00:00.000Z","Editor":"smcree_understandingwar"}},{"type":"Feature","geometry":{"type":"Point","coordinates":[56.48432700000001,26.54938899999999]},"properties":{"event_id":20,"data_org":"Green","date":"2026-03-11T00:00:00.000Z","reprt_time":"4:35","vesselname":"Mayuree Naree","IMO":"","MMSI":"","flag":"Thailand","location":"11NM north of Oman","latitude":26.549389,"longitude":56.484327,"coord_type":"","source_1":"https://www.bbc.com/news/live/cd70wzw9vqlt?post=asset%3A4a26653e-eb92-4a2b-ac13-814e5b9219a2#post","source_2":"https://x.com/UK_MTO/status/2031647016489492825/photo/1","sources":"https://www.reuters.com/world/asia-pacific/how-many-ships-have-been-attacked-gulf-since-start-iran-war-2026-03-11/","GlobalID":"ee8e4626-ac48-4565-9c29-dba4c2bea7d0","CreationDa":"2026-09-28T00:00:00.000Z","Creator":"smcree_understandingwar","EditDate":"2026-09-28T00:00:00.000Z","Editor":"smcree_understandingwar"}},{"type":"Feature","geometry":{"type":"Point","coordinates":[55.496968,25.909661]},"properties":{"event_id":21,"data_org":"Green","date":"2026-03-11T00:00:00.000Z","reprt_time":"1:58","vesselname":"One Majesty","IMO":"","MMSI":"","flag":"Japan","location":"25NM NW of Ras Khaimah","latitude":25.909661,"longitude":55.496968,"coord_type":"exact","source_1":"https://x.com/UK_MTO/status/2031571352906272907/photo/1","source_2":"https://www.bbc.com/news/live/cd70wzw9vqlt?post=asset%3A7f97f1f3-ec00-48c6-8167-ca75b207ada3#post","sources":"https://www.reuters.com/world/asia-pacific/how-many-ships-have-been-attacked-gulf-since-start-iran-war-2026-03-11/","GlobalID":"076fd119-1709-4315-b763-1bf6b35a5f32","CreationDa":"2026-09-28T00:00:00.000Z","Creator":"smcree_understandingwar","EditDate":"2026-09-28T00:00:00.000Z","Editor":"smcree_understandingwar"}},{"type":"Feature","geometry":{"type":"Point","coordinates":[55.098924,25.957719]},"properties":{"event_id":22,"data_org":"Green","date":"2026-03-11T00:00:00.000Z","reprt_time":"2:05","vesselname":"Star Gwyneth","IMO":"","MMSI":"","flag":"Marshall Islands","location":"57NM off Dubai","latitude":25.957719,"longitude":55.098924,"coord_type":"general neighborhood","source_1":"https://www.bbc.com/news/live/cd70wzw9vqlt?post=asset%3A4a26653e-eb92-4a2b-ac13-814e5b9219a2#post","source_2":"","sources":"https://www.reuters.com/world/asia-pacific/how-many-ships-have-been-attacked-gulf-since-start-iran-war-2026-03-11/","GlobalID":"0028dbaf-86c1-4eda-8718-174042671638","CreationDa":"2026-09-28T00:00:00.000Z","Creator":"smcree_understandingwar","EditDate":"2026-09-28T00:00:00.000Z","Editor":"smcree_understandingwar"}},{"type":"Feature","geometry":{"type":"Point","coordinates":[54.968135,25.288961999999998]},"properties":{"event_id":26,"data_org":"Green","date":"2026-03-11T00:00:00.000Z","reprt_time":"23:31","vesselname":"Source Blessing","IMO":"","MMSI":"","flag":"UNK","location":"35NM north of Jebel Ali, UAE","latitude":25.288962,"longitude":54.968135,"coord_type":"exact","source_1":"https://x.com/UK_MTO/status/2031936127871938574/photo/1","source_2":"https://www.ukmto.org/-/media/ukmto/products/update-012---jmic-advisory-note-12_mar_2026_final.pdf?rev=1c4c140d79ae41598ae78e6c14858729","sources":"https://www.marinetraffic.com/en/ais/details/ships/shipid:437989/mmsi:636020939/imo:9243198/vessel:SOURCE%20BLESSING","GlobalID":"a8f5d632-074e-42c4-ad50-c4b24b054cf1","CreationDa":"2026-09-28T00:00:00.000Z","Creator":"smcree_understandingwar","EditDate":"2026-09-28T00:00:00.000Z","Editor":"smcree_understandingwar"}},{"type":"Feature","geometry":{"type":"Point","coordinates":[48.804162,29.590772000000005]},"properties":{"event_id":27,"data_org":"Green","date":"2026-03-12T00:00:00.000Z","reprt_time":"4:57","vesselname":"Zefyros","IMO":"","MMSI":"","flag":"Malta-flagged","location":"Iraqi territorial waters near Umm Qasr","latitude":29.590772,"longitude":48.804162,"coord_type":"exact","source_1":"https://x.com/MarineTraffic/status/2032018191069679993?s=20","source_2":"","sources":"","GlobalID":"deca52e5-a2b6-4445-ba74-eadd5292328d","CreationDa":"2026-09-28T00:00:00.000Z","Creator":"smcree_understandingwar","EditDate":"2026-09-28T00:00:00.000Z","Editor":"smcree_understandingwar"}},{"type":"Feature","geometry":{"type":"Point","coordinates":[48.803868,29.589900000000004]},"properties":{"event_id":28,"data_org":"Green","date":"2026-03-12T00:00:00.000Z","reprt_time":"6:04","vesselname":"Safesea Vishnu","IMO":"","MMSI":"","flag":"MARSHALL ISLANDS","location":"Northern Persian Gulf","latitude":29.5899,"longitude":48.803868,"coord_type":"exact","source_1":"https://x.com/clashreport/status/2032037435425624529?s=20","source_2":"https://x.com/MarineTraffic/status/2032018191069679993?s=20","sources":"https://x.com/UK_MTO/status/2031887648730517834/photo/1; https://x.com/mercoglianos/status/2031881472148156906; https://x.com/UK_MTO/status/2031928283114139709?s=20","GlobalID":"f6d57ec2-0d58-4ff6-8c70-3140918720e7","CreationDa":"2026-09-28T00:00:00.000Z","Creator":"smcree_understandingwar","EditDate":"2026-09-28T00:00:00.000Z","Editor":"smcree_understandingwar"}},{"type":"Feature","geometry":{"type":"Point","coordinates":[54.87423,25.51130999999999]},"properties":{"event_id":35,"data_org":"Green","date":"2026-03-30T00:00:00.000Z","reprt_time":"5:44:00 PM","vesselname":"Al Salmi","IMO":"9534793","MMSI":"447097000","flag":"Kuwait","location":"31 NM NW of Dubai, UAE","latitude":25.51131,"longitude":54.87423,"coord_type":"exact","source_1":"https://x.com/UK_MTO/status/2038734163688181923?s=20","source_2":"https://x.com/UK_MTO/status/2038889731782479992?s=20","sources":"https://x.com/ariel_oseran/status/2038755918116986938?s=20; https://x.com/ariel_oseran/status/2038762119257088108?s=20; https://t.me/sepah_pasdaran/190457","GlobalID":"2455571e-4ff3-456c-ae58-772c5a7dd1cb","CreationDa":"2026-09-28T00:00:00.000Z","Creator":"smcree_understandingwar","EditDate":"2026-09-28T00:00:00.000Z","Editor":"smcree_understandingwar"}},{"type":"Feature","geometry":{"type":"Point","coordinates":[51.574540000000006,26.206220000000002]},"properties":{"event_id":36,"data_org":"Green","date":"2026-03-31T00:00:00.000Z","reprt_time":"8:33:00 PM","vesselname":"Aqua 1","IMO":"9573660","MMSI":"352004089","flag":"Panama","location":"17 NM N of Ras Laffan, Qatar","latitude":26.20622,"longitude":51.57454,"coord_type":"exact","source_1":"https://x.com/UK_MTO/status/2039139096925237520?s=20","source_2":"https://x.com/UK_MTO/status/2039193541881008505?s=20","sources":"https://www.reuters.com/world/middle-east/tanker-hit-by-two-projectiles-off-qatar-one-unexploded-ukmto-says-2026-04-01/; https://x.com/no_itsmyturn/status/2039319332337955192","GlobalID":"115c7290-ffc6-443e-882d-f5fc2c8e42ad","CreationDa":"2026-09-28T00:00:00.000Z","Creator":"smcree_understandingwar","EditDate":"2026-09-28T00:00:00.000Z","Editor":"smcree_understandingwar"}},{"type":"Feature","geometry":{"type":"Point","coordinates":[56.5262,26.717500000000005]},"properties":{"event_id":42,"data_org":"Green","date":"2026-04-18T00:00:00.000Z","reprt_time":"6:17:00 AM","vesselname":"Jag Arnav","IMO":"9705354","MMSI":"419000984","flag":"India","location":"E of Larak island","latitude":26.7175,"longitude":56.5262,"coord_type":"","source_1":"https://x.com/TankerTrackers/status/2045446586340086080?s=20","source_2":"https://www.bbc.com/news/live/cqxdg17yr2wt?post=asset%3A4a8eb767-b681-4a04-8686-6ede1993c096#post","sources":"","GlobalID":"5b6f8cc1-259a-44ea-a703-1c573870d507","CreationDa":"2026-09-28T00:00:00.000Z","Creator":"smcree_understandingwar","EditDate":"2026-09-28T00:00:00.000Z","Editor":"smcree_understandingwar"}},{"type":"Feature","geometry":{"type":"Point","coordinates":[56.6487,26.6741]},"properties":{"event_id":43,"data_org":"Green","date":"2026-04-18T00:00:00.000Z","reprt_time":"6:17:00 AM","vesselname":"Sanmar Herald","IMO":"9330563","MMSI":"419002042","flag":"India","location":"E of Larak island","latitude":26.6741,"longitude":56.6487,"coord_type":"","source_1":"https://x.com/TankerTrackers/status/2045446586340086080?s=20","source_2":"https://www.bbc.com/news/live/cqxdg17yr2wt?post=asset%3A4a8eb767-b681-4a04-8686-6ede1993c096#post","sources":"https://www.reuters.com/world/india/indian-ship-attacked-while-crossing-strait-hormuz-indian-govt-source-says-2026-04-18/","GlobalID":"c447988a-5ae9-460c-950b-06e7df1414ac","CreationDa":"2026-09-28T00:00:00.000Z","Creator":"smcree_understandingwar","EditDate":"2026-09-28T00:00:00.000Z","Editor":"smcree_understandingwar"}},{"type":"Feature","geometry":{"type":"Point","coordinates":[55.803333,26.018332999999984]},"properties":{"event_id":55,"data_org":"Green","date":"2026-05-04T00:00:00.000Z","reprt_time":"11:39:00 AM","vesselname":"JV Innovation","IMO":"9276688","MMSI":"538011950","flag":"Marshall Islands","location":"14NM west of Mina Saqr, UAE","latitude":26.018333,"longitude":55.803333,"coord_type":"","source_1":"https://x.com/UK_MTO/status/2051325943935827997?s=20","source_2":"https://www.wsj.com/world/middle-east/project-freedom-trump-iran-persian-gulf-ff02c827?mod=middle-east_news_article_pos1","sources":"","GlobalID":"1a35f213-4c8a-4c15-9337-5c11eaa222b2","CreationDa":"2026-09-28T00:00:00.000Z","Creator":"smcree_understandingwar","EditDate":"2026-09-28T00:00:00.000Z","Editor":"smcree_understandingwar"}},{"type":"Feature","geometry":{"type":"Point","coordinates":[48.68172800000001,29.623974999999994]},"properties":{"event_id":63,"data_org":"Green","date":"2026-06-01T00:00:00.000Z","reprt_time":"10:23:00 AM","vesselname":"UNK","IMO":"","MMSI":"","flag":"","location":"40 NM southeast of Umm Qasr, Iraq","latitude":29.623975,"longitude":48.681728,"coord_type":"exact","source_1":"https://x.com/UK_MTO/status/2061453567907549225","source_2":"","sources":"","GlobalID":"e11b1d2a-97b9-40ce-b346-28ffadda64e9","CreationDa":"2026-09-28T00:00:00.000Z","Creator":"smcree_understandingwar","EditDate":"2026-09-28T00:00:00.000Z","Editor":"smcree_understandingwar"}},{"type":"Feature","geometry":{"type":"Point","coordinates":[56.572659,26.265314999999994]},"properties":{"event_id":68,"data_org":"Green","date":"2026-06-25T00:00:00.000Z","reprt_time":"10:10:00 AM","vesselname":"EVER LOVELY","IMO":"","MMSI":"","flag":"Singapore","location":"8 NM southeast of Dahit, Musandam Province, Oman","latitude":26.265315,"longitude":56.572659,"coord_type":"general neighborhood","source_1":"https://x.com/UK_MTO/status/2070160682264269241?s=20","source_2":"https://x.com/_MartinKelly_/status/2070170420800639404?s=20","sources":"https://www.wsj.com/world/middle-east/iran-attacks-cargo-ship-testing-trumps-deal-to-reopen-strait-d3cf454c","GlobalID":"8871baeb-2dd0-4761-983a-c37c9b5c3ce0","CreationDa":"2026-09-28T00:00:00.000Z","Creator":"smcree_understandingwar","EditDate":"2026-09-28T00:00:00.000Z","Editor":"smcree_understandingwar"}},{"type":"Feature","geometry":{"type":"Point","coordinates":[56.203308,26.397712]},"properties":{"event_id":69,"data_org":"Green","date":"2026-06-27T00:00:00.000Z","reprt_time":"5:39:00 AM","vesselname":"M/T Kiku","IMO":"9329796","MMSI":"352002628","flag":"Panama","location":"","latitude":26.397712,"longitude":56.203308,"coord_type":"general neighborhood","source_1":"https://x.com/UK_MTO/status/2070804115509190704","source_2":"https://x.com/CENTCOM/status/2070987021930102919","sources":"","GlobalID":"5c056325-dbde-4842-8e4d-3c8bd758c262","CreationDa":"2026-09-28T00:00:00.000Z","Creator":"smcree_understandingwar","EditDate":"2026-09-28T00:00:00.000Z","Editor":"smcree_understandingwar"}},{"type":"Feature","geometry":{"type":"Point","coordinates":[56.459198,25.941057000000008]},"properties":{"event_id":71,"data_org":"Green","date":"2026-07-06T00:00:00.000Z","reprt_time":"5:19:00 PM","vesselname":"Al Rekayyat","IMO":"9397339","MMSI":"538003347","flag":"Qatar","location":"8 NM East of Limah, Oman","latitude":25.941057,"longitude":56.459198,"coord_type":"general neighborhood","source_1":"https://x.com/UK_MTO/status/2074271485275812027","source_2":"https://www.reuters.com/world/middle-east/iran-fires-missiles-commercial-ships-strait-hormuz-axios-reports-2026-07-07/","sources":"https://www.ukmto.org/-/media/ukmto/products/update-068-jmic-advisory-note-07-july.pdf?rev=274817fc31674a1296b6ea6b3dd6ac7d","GlobalID":"c471945d-b852-4f2c-bd36-f4e38e4b0875","CreationDa":"2026-09-28T00:00:00.000Z","Creator":"smcree_understandingwar","EditDate":"2026-09-28T00:00:00.000Z","Editor":"smcree_understandingwar"}},{"type":"Feature","geometry":{"type":"Point","coordinates":[56.41766224,26.269361]},"properties":{"event_id":72,"data_org":"Green","date":"2026-07-06T00:00:00.000Z","reprt_time":"9:05:00 AM","vesselname":"Wedyan","IMO":"9524970","MMSI":"403499000","flag":"Saudi","location":"6 nm off Musandam\nPeninsula, Oman","latitude":26.269361,"longitude":56.41766224,"coord_type":"general neighborhood","source_1":"https://x.com/UK_MTO/status/2074492705451733369","source_2":"https://www.haaretz dot com/israel-news/israel-security/2026-07-07/ty-article-live/.highlight/iran-fires-missiles-at-commercial-ships-in-strait-of-hormuz-axios-reports/0000019f-3a46-d6c0-a9df-ffdfc32e0000?liveBlogItemId=2061757731#2061757731000","sources":"https://www.reuters.com/world/middle-east/saudi-flagged-crude-oil-tanker-damaged-near-hormuz-after-lng-tanker-hit-sources-2026-07-07/","GlobalID":"04d77161-abb6-4131-9287-d57fbe17e674","CreationDa":"2026-09-28T00:00:00.000Z","Creator":"smcree_understandingwar","EditDate":"2026-09-28T00:00:00.000Z","Editor":"smcree_understandingwar"}},{"type":"Feature","geometry":{"type":"Point","coordinates":[56.61432800000001,26.321670999999995]},"properties":{"event_id":75,"data_org":"Green","date":"2026-07-11T00:00:00.000Z","reprt_time":"10:40:00 PM","vesselname":"GFS Galaxy","IMO":"9401271","MMSI":"210154000","flag":"Cyprus","location":"9NM east of Oman","latitude":26.321671,"longitude":56.614328,"coord_type":"general neighborhood","source_1":"https://x.com/UK_MTO/status/2076164855959101508?s=20","source_2":"https://x.com/sentdefender/status/2076122218799436203?s=20","sources":"https://www.reuters.com/world/asia-pacific/iran-declares-strait-hormuz-closed-unauthorised-vessel-hit-2026-07-11/; https://x.com/tom_bike/status/2076287123313795253","GlobalID":"055eef21-8ecf-4367-b7a0-5bcf3efa5d0c","CreationDa":"2026-09-28T00:00:00.000Z","Creator":"smcree_understandingwar","EditDate":"2026-09-28T00:00:00.000Z","Editor":"smcree_understandingwar"}},{"type":"Feature","geometry":{"type":"Point","coordinates":[59.94671,23.083446000000002]},"properties":{"event_id":74,"data_org":"Green","date":"2026-07-13T00:00:00.000Z","reprt_time":"5:04:00 PM","vesselname":"UNK","IMO":"","MMSI":"","flag":"","location":"40 NM northeast of Qalhat, Oman","latitude":23.083446,"longitude":59.94671,"coord_type":"general neighborhood","source_1":"https://x.com/UK_MTO/status/2076794860711874741?s=20","source_2":"","sources":"","GlobalID":"56241423-1e16-4032-87c1-417a42386c95","CreationDa":"2026-09-28T00:00:00.000Z","Creator":"smcree_understandingwar","EditDate":"2026-09-28T00:00:00.000Z","Editor":"smcree_understandingwar"}},{"type":"Feature","geometry":{"type":"Point","coordinates":[56.60596568,25.821655000000003]},"properties":{"event_id":76,"data_org":"Green","date":"2026-07-13T00:00:00.000Z","reprt_time":"TBC","vesselname":"Mombasa","IMO":"","MMSI":"","flag":"","location":"13 NM southeast of Limah, Oman","latitude":25.821655,"longitude":56.60596568,"coord_type":"general neighborhood","source_1":"https://x.com/UK_MTO/status/2076931405922136545?s=20","source_2":"https://x.com/UK_MTO/status/2076934679874118007?s=20","sources":"https://x.com/UK_MTO/status/2077044851648971182?s=20","GlobalID":"3919c6d7-bd3a-40f3-939a-d0560f3686c0","CreationDa":"2026-09-28T00:00:00.000Z","Creator":"smcree_understandingwar","EditDate":"2026-09-28T00:00:00.000Z","Editor":"smcree_understandingwar"}},{"type":"Feature","geometry":{"type":"Point","coordinates":[56.60596568,25.821655000000003]},"properties":{"event_id":80,"data_org":"Green","date":"2026-07-13T00:00:00.000Z","reprt_time":"TBC","vesselname":"Al Baniyah","IMO":"","MMSI":"","flag":"","location":"13 NM southeast of Limah, Oman","latitude":25.821655,"longitude":56.60596568,"coord_type":"general neighborhood","source_1":"https://x.com/UK_MTO/status/2076931405922136545?s=20","source_2":"https://x.com/UK_MTO/status/2076934679874118007?s=20","sources":"https://x.com/UK_MTO/status/2077044851648971182?s=20","GlobalID":"b5d5f43e-4b7c-4bcb-8ab3-49283c960809","CreationDa":"2026-09-28T00:00:00.000Z","Creator":"smcree_understandingwar","EditDate":"2026-09-28T00:00:00.000Z","Editor":"smcree_understandingwar"}},{"type":"Feature","geometry":{"type":"Point","coordinates":[56.725652,26.23478899999999]},"properties":{"event_id":81,"data_org":"Green","date":"2026-07-17T00:00:00.000Z","reprt_time":"4:58:00 AM","vesselname":"UNK","IMO":"","MMSI":"","flag":"","location":"19 NM east of Khasab, Oman","latitude":26.234789,"longitude":56.725652,"coord_type":"general neighborhood","source_1":"https://x.com/UK_MTO/status/2078041630888579547","source_2":"","sources":"","GlobalID":"2cf6c027-1665-4351-b8be-f15f62fa45ea","CreationDa":"2026-09-28T00:00:00.000Z","Creator":"smcree_understandingwar","EditDate":"2026-09-28T00:00:00.000Z","Editor":"smcree_understandingwar"}},{"type":"Feature","geometry":{"type":"Point","coordinates":[56.3836,26.518469999999997]},"properties":{"event_id":86,"data_org":"Green","date":"2026-07-19T00:00:00.000Z","reprt_time":"6:53:00 AM","vesselname":"KAVOMALEAS","IMO":"1042823","MMSI":"249525000","flag":"","location":"","latitude":26.51847,"longitude":56.3836,"coord_type":"exact","source_1":"https://t.me/iliaen/4598","source_2":"https://x.com/andynovy/status/2079199088948429274?s=20","sources":"https://x.com/andynovy/status/2079199132938293609?s=20 ; https://x.com/UK_MTO/status/2079257683094393199?s=20; https://t.me/BenTzionM/8057?single","GlobalID":"c5c109f3-4790-47b3-a7bb-6bfe47fcd231","CreationDa":"2026-09-28T00:00:00.000Z","Creator":"smcree_understandingwar","EditDate":"2026-09-28T00:00:00.000Z","Editor":"smcree_understandingwar"}},{"type":"Feature","geometry":{"type":"Point","coordinates":[56.60294,25.631649999999993]},"properties":{"event_id":87,"data_org":"Green","date":"2026-07-20T00:00:00.000Z","reprt_time":"12:52:00 PM","vesselname":"UNK","IMO":"","MMSI":"","flag":"","location":"17 NM east of Dibba","latitude":25.63165,"longitude":56.60294,"coord_type":"general neighborhood","source_1":"https://x.com/arabnews/status/2079246045289005093","source_2":"https://x.com/hey_itsmyturn/status/2079245540261347409","sources":"","GlobalID":"f124c56f-1473-4b27-94df-ca06937385fc","CreationDa":"2026-09-28T00:00:00.000Z","Creator":"smcree_understandingwar","EditDate":"2026-09-28T00:00:00.000Z","Editor":"smcree_understandingwar"}},{"type":"Feature","geometry":{"type":"Point","coordinates":[56.536008,26.016706999999993]},"properties":{"event_id":89,"data_org":"Green","date":"2026-07-20T00:00:00.000Z","reprt_time":"4:10:00 PM","vesselname":"UNK","IMO":"","MMSI":"","flag":"","location":"8NM NE of Limah, Oman","latitude":26.016707,"longitude":56.536008,"coord_type":"general neighborhood","source_1":"","source_2":"https://x.com/UK_MTO/status/2079378096906498509","sources":"","GlobalID":"f11f07de-9537-4596-9c23-bea25f28f345","CreationDa":"2026-09-28T00:00:00.000Z","Creator":"smcree_understandingwar","EditDate":"2026-09-28T00:00:00.000Z","Editor":"smcree_understandingwar"}},{"type":"Feature","geometry":{"type":"Point","coordinates":[56.595588000000006,26.156578999999997]},"properties":{"event_id":92,"data_org":"Green","date":"2026-07-31T00:00:00.000Z","reprt_time":"7:30:00 PM","vesselname":"GASLOG SHANGHAI","IMO":"9600528","MMSI":"310644000","flag":"Bermuda","location":"11NM NE of Lima, Oman","latitude":26.156579,"longitude":56.595588,"coord_type":"general neighborhood","source_1":"https://x.com/UK_MTO/status/2083391496477135187","source_2":"https://x.com/SStapczynski/status/2083500425408557543","sources":"https://x.com/SStapczynski/status/2083532679442804913","GlobalID":"0797e209-544e-44b4-b91a-1bf8d40ec371","CreationDa":"2026-09-28T00:00:00.000Z","Creator":"smcree_understandingwar","EditDate":"2026-09-28T00:00:00.000Z","Editor":"smcree_understandingwar"}},{"type":"Feature","geometry":{"type":"Point","coordinates":[56.585812,26.30106]},"properties":{"event_id":93,"data_org":"Green","date":"2026-07-31T00:00:00.000Z","reprt_time":"6:06:00 PM","vesselname":"UNK","IMO":"","MMSI":"","flag":"","location":"21 NM NE of Khasab Oman","latitude":26.30106,"longitude":56.585812,"coord_type":"general neighborhood","source_1":"https://x.com/UK_MTO/status/2083431074730840074","source_2":"","sources":"","GlobalID":"96bc4047-e09e-4bb3-b351-7b0db0d1a681","CreationDa":"2026-09-28T00:00:00.000Z","Creator":"smcree_understandingwar","EditDate":"2026-09-28T00:00:00.000Z","Editor":"smcree_understandingwar"}},{"type":"Feature","geometry":{"type":"Point","coordinates":[56.515985,26.447762]},"properties":{"event_id":94,"data_org":"Green","date":"2026-08-02T00:00:00.000Z","reprt_time":"4:37:00 PM","vesselname":"UNK","IMO":"","MMSI":"","flag":"","location":"20 NM NE of Khasab, Oman","latitude":26.447762,"longitude":56.515985,"coord_type":"general neighborhood","source_1":"https://x.com/UK_MTO/status/2084043922519572654?s=20","source_2":"https://t.me/iribnews/354599","sources":"","GlobalID":"cc492bb5-ba65-457b-a044-4575e64f7760","CreationDa":"2026-09-28T00:00:00.000Z","Creator":"smcree_understandingwar","EditDate":"2026-09-28T00:00:00.000Z","Editor":"smcree_understandingwar"}},{"type":"Feature","geometry":{"type":"Point","coordinates":[56.515985,26.447762]},"properties":{"event_id":95,"data_org":"Green","date":"2026-08-03T00:00:00.000Z","reprt_time":"5:00:00 PM","vesselname":"UNK","IMO":"","MMSI":"","flag":"","location":"20 NM NE of Khasab, Oman","latitude":26.447762,"longitude":56.515985,"coord_type":"general neighborhood","source_1":"https://x.com/UK_MTO/status/2084425228793401786","source_2":"https://x.com/UK_MTO/status/2084657749711794401","sources":"","GlobalID":"93723566-1fce-46ce-990d-070f7814bbff","CreationDa":"2026-09-28T00:00:00.000Z","Creator":"smcree_understandingwar","EditDate":"2026-09-28T00:00:00.000Z","Editor":"smcree_understandingwar"}},{"type":"Feature","geometry":{"type":"Point","coordinates":[56.569971,26.1889]},"properties":{"event_id":100,"data_org":"Green","date":"2026-08-08T00:00:00.000Z","reprt_time":"TBC","vesselname":"UNK","IMO":"","MMSI":"","flag":"","location":"18 NM E of Khasab, Oman","latitude":26.1889,"longitude":56.569971,"coord_type":"general neighborhood","source_1":"https://x.com/UK_MTO/status/2086080281149129109?s=20","source_2":"https://x.com/UK_MTO/status/2086455851116638398/photo/1","sources":"","GlobalID":"c0f163c4-f04c-47cb-bfa4-fff184a975c6","CreationDa":"2026-09-28T00:00:00.000Z","Creator":"smcree_understandingwar","EditDate":"2026-09-28T00:00:00.000Z","Editor":"smcree_understandingwar"}},{"type":"Feature","geometry":{"type":"Point","coordinates":[56.59434,26.3572]},"properties":{"event_id":105,"data_org":"Green","date":"2026-08-17T00:00:00.000Z","reprt_time":"8:35:00 PM","vesselname":"unk","IMO":"","MMSI":"","flag":"","location":"0.5 NM off coast of Oman","latitude":26.3572,"longitude":56.59434,"coord_type":"general neighborhood","source_1":"https://x.com/UK_MTO/status/2089552015152070720","source_2":"https://www.ukmto.org/-/media/ukmto/products/update-086-jmic-advisory-note-18-august.pdf?rev=488a151695454bcc8eaf21f6bcd0c93a","sources":"","GlobalID":"9f1db000-a06c-4518-a05f-8af12b74a913","CreationDa":"2026-09-28T00:00:00.000Z","Creator":"smcree_understandingwar","EditDate":"2026-09-28T00:00:00.000Z","Editor":"smcree_understandingwar"}},{"type":"Feature","geometry":{"type":"Point","coordinates":[56.34310000000001,26.375600000000006]},"properties":{"event_id":110,"data_org":"Green","date":"2026-08-30T00:00:00.000Z","reprt_time":"3:53:00 PM","vesselname":"Burgan","IMO":"9656022","MMSI":"","flag":"Kuwait","location":"12 nm north of Khasab, Oman","latitude":26.3756,"longitude":56.3431,"coord_type":"exact","source_1":"https://x.com/UK_MTO/status/2094098428963811386","source_2":"https://x.com/_MartinKelly_/status/2094319942128501098","sources":"https://x.com/tom_bike/status/2094143172091805962","GlobalID":"0818691d-ed90-4cc8-93a7-cee2ed65cf68","CreationDa":"2026-09-28T00:00:00.000Z","Creator":"smcree_understandingwar","EditDate":"2026-09-28T00:00:00.000Z","Editor":"smcree_understandingwar"}},{"type":"Feature","geometry":{"type":"Point","coordinates":[55.021473,25.608329000000005]},"properties":{"event_id":118,"data_org":"Green","date":"2026-09-08T00:00:00.000Z","reprt_time":"9:48:00 PM","vesselname":"Hercules Star","IMO":"","MMSI":"","flag":"Gibraltar","location":"24 NM northwest of Port Rashid, UAE","latitude":25.608329,"longitude":55.021473,"coord_type":"general neighborhood","source_1":"https://x.com/UK_MTO/status/2097612560606306675","source_2":"https://www.reuters.com/world/middle-east/seafarer-oil-products-tanker-killed-incident-off-dubai-peninsula-says-2026-09-09/","sources":"","GlobalID":"91c6cf15-ca98-412c-b80d-3e0311e77a43","CreationDa":"2026-09-28T00:00:00.000Z","Creator":"smcree_understandingwar","EditDate":"2026-09-28T00:00:00.000Z","Editor":"smcree_understandingwar"}},{"type":"Feature","geometry":{"type":"Point","coordinates":[48.750071000000005,29.484535999999995]},"properties":{"event_id":119,"data_org":"Green","date":"2026-09-08T00:00:00.000Z","reprt_time":"9:30:00 PM","vesselname":"New Andros","IMO":"9294252","MMSI":"","flag":"Panama","location":"28 NM south east of Al Faw, Iraq","latitude":29.484536,"longitude":48.750071,"coord_type":"general neighborhood","source_1":"https://x.com/UK_MTO/status/2097639815181123740","source_2":"ttps://www.jpost dot com/middle-east/article-908088","sources":"https://www.reuters.com/world/middle-east/iran-attacks-us-base-jordan-ships-near-hormuz-after-tankers-sunk-2026-09-09/ ; https://www.alhadath dot net/iraq/2026/09/09/????-????-?????-???????-???????-?????-???-??-?????-??????-????-??-??-????? ; https://x.c","GlobalID":"161b509d-924d-4f88-8cb0-7858632979dc","CreationDa":"2026-09-28T00:00:00.000Z","Creator":"smcree_understandingwar","EditDate":"2026-09-28T00:00:00.000Z","Editor":"smcree_understandingwar"}},{"type":"Feature","geometry":{"type":"Point","coordinates":[56.37042,25.356783000000004]},"properties":{"event_id":121,"data_org":"Green","date":"2026-09-09T00:00:00.000Z","reprt_time":"12:07:00 AM","vesselname":"","IMO":"","MMSI":"","flag":"","location":"Khor Fakkan, UAE","latitude":25.356783,"longitude":56.37042,"coord_type":"exact","source_1":"https://www.reuters.com/world/middle-east/iran-attacks-us-base-jordan-ships-near-hormuz-after-tankers-sunk-2026-09-09/","source_2":"","sources":"","GlobalID":"d8402b49-c274-4ee8-a2ae-6027b384bd9b","CreationDa":"2026-09-28T00:00:00.000Z","Creator":"smcree_understandingwar","EditDate":"2026-09-28T00:00:00.000Z","Editor":"smcree_understandingwar"}},{"type":"Feature","geometry":{"type":"Point","coordinates":[56.569317000000005,26.636433999999994]},"properties":{"event_id":127,"data_org":"Green","date":"2026-09-17T00:00:00.000Z","reprt_time":"UNK","vesselname":"","IMO":"","MMSI":"","flag":"","location":"16 NM northeast of Khasab","latitude":26.636434,"longitude":56.569317,"coord_type":"general neighborhood","source_1":"https://x.com/UK_MTO/status/2100670708678271299","source_2":"","sources":"","GlobalID":"60e015f5-43cd-4de4-a9f8-aeb1ff6bbd93","CreationDa":"2026-09-28T00:00:00.000Z","Creator":"smcree_understandingwar","EditDate":"2026-09-28T00:00:00.000Z","Editor":"smcree_understandingwar"}},{"type":"Feature","geometry":{"type":"Point","coordinates":[56.46966700000001,26.499392999999998]},"properties":{"event_id":130,"data_org":"Green","date":"2026-09-21T00:00:00.000Z","reprt_time":"9:30:00 AM","vesselname":"","IMO":"","MMSI":"","flag":"","location":"Off coast of Musandam, Oman","latitude":26.499393,"longitude":56.469667,"coord_type":"general neighborhood","source_1":"https://x.com/UK_MTO/status/2102044500453445984?s=20","source_2":"","sources":"","GlobalID":"0e1721e2-3600-4772-80e4-f520f6330a4f","CreationDa":"2026-09-28T00:00:00.000Z","Creator":"smcree_understandingwar","EditDate":"2026-09-28T00:00:00.000Z","Editor":"smcree_understandingwar"}},{"type":"Feature","geometry":{"type":"Point","coordinates":[56.412702,26.419214999999998]},"properties":{"event_id":131,"data_org":"Green","date":"2026-09-23T00:00:00.000Z","reprt_time":"1:30:00 AM","vesselname":"CAPE DAO","IMO":"","MMSI":"","flag":"","location":"15 NM NE of Khasab, Oman","latitude":26.419215,"longitude":56.412702,"coord_type":"general neighborhood","source_1":"https://x.com/UK_MTO/status/2102732503458951520","source_2":"https://x.com/UK_MTO/status/2103165360212234315?s=20","sources":"","GlobalID":"4df00427-4e86-4af3-b2db-e68b74da594d","CreationDa":"2026-09-28T00:00:00.000Z","Creator":"smcree_understandingwar","EditDate":"2026-09-28T00:00:00.000Z","Editor":"smcree_understandingwar"}}],"fileName":"Iran Strikes against Civilian Vessels Evening of September 28, 2026"}