{"type":"FeatureCollection","features":[{"type":"Feature","geometry":{"type":"Point","coordinates":[45.28019,31.318869999999997]},"properties":{"event_id":8,"data_org":"Green","post_date":"2026-03-01T00:00:00.000Z","pub_date":"2026-03-01T00:00:00.000Z","strikedate":"2026-03-01T00:00:00.000Z","event_type":"Reported Airstrike","actor":"UNK","site_type":"military","siteStype":"","city":"Samawah","province":"Muthanna","country":"Iraq","latitude":31.31887,"longitude":45.28019,"coord_type":"general town","source_1":"https://x.com/BaxtiyarGoran/status/2028241450039664819","source_2":"DNGTS: https://www.shafaq dot com/ar/%D8%A3%D9%85%D9%80%D9%86/%D9%85%D8%B5%D8%AF%D8%B1-%D9%82%D8%B5%D9%81-%D8%A7%D9%84%D9%85%D8%AB%D9%86%D9%89-%D9%88%D8%AF%D9%89-%D8%A8%D8%AD%D9%8A%D8%A7%D8%A9-%D8%B9%D9%86%D8%B5%D8%B1-%D8%A8%D8%A7%D9%84%D8%AD%D8%B4%D8%AF","sources":""}},{"type":"Feature","geometry":{"type":"Point","coordinates":[44.2424,32.910669999999996]},"properties":{"event_id":9,"data_org":"Green","post_date":"2026-03-02T00:00:00.000Z","pub_date":"2026-03-02T00:00:00.000Z","strikedate":"2026-03-02T00:00:00.000Z","event_type":"Reported Airstrike","actor":"UNK","site_type":"military","siteStype":"","city":"Jurf Sakhar","province":"Babylon","country":"Iraq","latitude":32.91067,"longitude":44.2424,"coord_type":"general town","source_1":"DNGTS: https://www.shafaq dot com/ar/%D8%A3%D9%85%D9%80%D9%86/%D8%B5%D8%A7%D8%A8%D8%A7%D8%AA-%D8%A8%D9%803-%D8%B6%D8%B1%D8%A8%D8%A7%D8%AA-%D8%A7%D8%B3%D8%AA%D9%87%D8%AF%D9%81%D8%AA-%D9%85%D9%82%D8%B1%D8%A7-%D9%84%D9%83%D8%AA%D8%A7-%D8%A8-%D8%AD%D8%B2%D8%","source_2":"DNGTS: https://www.shafaq dot com/ar/????/?????-??????-????-????-?-????-???????-????????-???-?????-?????","sources":""}},{"type":"Feature","geometry":{"type":"Point","coordinates":[43.12070000000001,36.49071]},"properties":{"event_id":11,"data_org":"Green","post_date":"2026-03-02T00:00:00.000Z","pub_date":"2026-03-02T00:00:00.000Z","strikedate":"2026-03-02T00:00:00.000Z","event_type":"Reported Airstrike","actor":"UNK","site_type":"military","siteStype":"","city":"Tel Keif","province":"Nineveh","country":"Iraq","latitude":36.49071,"longitude":43.1207,"coord_type":"general town","source_1":"DNGTS: https://www.shafaq dot com/ar/%D8%A3%D9%85%D9%80%D9%86/%D8%B7%D8%A7-%D8%B1%D8%A9-%D9%85%D8%B3%D9%8A-%D8%B1%D8%A9-%D8%AA%D8%B3%D8%AA%D9%87%D8%AF%D9%81-%D9%86%D9%82%D8%B7%D8%A9-%D9%84%D9%84%D8%AD%D8%B4%D8%AF-%D8%A7%D9%84%D8%B4%D8%B9%D8%A8%D9%8A-%D8%","source_2":"","sources":""}},{"type":"Feature","geometry":{"type":"Point","coordinates":[43.3889,36.40171]},"properties":{"event_id":12,"data_org":"Green","post_date":"2026-03-02T00:00:00.000Z","pub_date":"2026-03-02T00:00:00.000Z","strikedate":"2026-03-02T00:00:00.000Z","event_type":"Reported Airstrike","actor":"UNK","site_type":"military","siteStype":"","city":"Bartella","province":"Nineveh","country":"Iraq","latitude":36.40171,"longitude":43.3889,"coord_type":"general town","source_1":"DNGTS: https://www.shafaq dot com/ar/????/???-??????-???-???-??-?????-??????-????-?????","source_2":"","sources":""}},{"type":"Feature","geometry":{"type":"Point","coordinates":[45.3267,31.27101999999999]},"properties":{"event_id":17,"data_org":"Green","post_date":"2026-03-03T00:00:00.000Z","pub_date":"2026-03-04T00:00:00.000Z","strikedate":"2026-03-03T00:00:00.000Z","event_type":"Reported Airstrike","actor":"UNK","site_type":"military","siteStype":"","city":"Samawah","province":"Muthanna","country":"Iraq","latitude":31.27102,"longitude":45.3267,"coord_type":"POV","source_1":"https://x.com/FaytuksNetwork/status/2028976819630678065","source_2":"DNGTS: https://www.shafaq dot com/ar/????/???-????-????-?????-?-??-?????-???-????","sources":""}},{"type":"Feature","geometry":{"type":"Point","coordinates":[43.112,35.85093]},"properties":{"event_id":26,"data_org":"Green","post_date":"2026-03-06T00:00:00.000Z","pub_date":"2026-03-06T00:00:00.000Z","strikedate":"2026-03-06T00:00:00.000Z","event_type":"Reported Airstrike","actor":"UNK","site_type":"military","siteStype":"","city":"Mosul","province":"Nineveh","country":"Iraq","latitude":35.85093,"longitude":43.112,"coord_type":"exact","source_1":"DNGTS: https://shafaq dot com/ar/%D8%A3%D9%85%D9%80%D9%86/%D9%82%D8%B5%D9%81-%D8%AC%D9%88%D9%8A-%D9%84%D9%85%D9%82%D8%B1-%D9%83%D8%AA%D8%A7-%D8%A8-%D8%A7%D9%84-%D9%85%D8%A7%D9%85-%D8%B9%D9%84%D9%8A-%D8%AC%D9%86%D9%88%D8%A8%D9%8A-%D8%A7%D9%84%D9%85%D9%88%","source_2":"https://x.com/obretix/status/2030234071930995102","sources":""}},{"type":"Feature","geometry":{"type":"Point","coordinates":[43.0888,36.412189999999995]},"properties":{"event_id":27,"data_org":"Green","post_date":"2026-03-06T00:00:00.000Z","pub_date":"2026-03-06T00:00:00.000Z","strikedate":"2026-03-06T00:00:00.000Z","event_type":"Reported Airstrike","actor":"US","site_type":"unknown","siteStype":"","city":"Mosul","province":"Nineveh","country":"Iraq","latitude":36.41219,"longitude":43.0888,"coord_type":"general neighborhood","source_1":"DNGTS: https://shafaq dot com/ar/%D8%A3%D9%85%D9%80%D9%86/%D9%82%D8%B5%D9%81-%D8%AC%D9%88%D9%8A-%D9%8A%D8%B3%D8%AA%D9%87%D8%AF%D9%81-%D9%85%D9%82%D8%B1%D8%A7-%D9%84%D9%84%D8%AD%D8%B4%D8%AF-%D8%A7%D9%84%D8%B4%D8%B9%D8%A8%D9%8A-%D8%B4%D9%85%D8%A7%D9%84%D9%","source_2":"","sources":""}},{"type":"Feature","geometry":{"type":"Point","coordinates":[43.289,35.78982]},"properties":{"event_id":33,"data_org":"Green","post_date":"2026-03-07T00:00:00.000Z","pub_date":"2026-03-07T00:00:00.000Z","strikedate":"2026-03-07T00:00:00.000Z","event_type":"Reported Airstrike","actor":"UNK","site_type":"","siteStype":"","city":"Mosul","province":"Nineveh","country":"Iraq","latitude":35.78982,"longitude":43.289,"coord_type":"general neighborhood","source_1":"DNGTS: https://www.shafaq dot com/ar/%D8%A3%D9%85%D9%80%D9%86/%D8%B6%D8%B1%D8%A8%D8%A9-%D8%AC%D9%88%D9%8A%D8%A9-%D8%AA%D8%B3%D8%AA%D9%87%D8%AF%D9%81-%D9%85%D9%88%D9%82%D8%B9%D8%A7-%D9%84%D9%80-%D9%83%D8%AA%D8%A7-%D8%A8-%D8%A7%D9%84-%D9%85%D8%A7%D9%85-%D8","source_2":"","sources":""}},{"type":"Feature","geometry":{"type":"Point","coordinates":[43.3579,32.73199]},"properties":{"event_id":34,"data_org":"Green","post_date":"2026-03-07T00:00:00.000Z","pub_date":"2026-03-07T00:00:00.000Z","strikedate":"2026-03-07T00:00:00.000Z","event_type":"Reported Airstrike","actor":"UNK","site_type":"","siteStype":"","city":"","province":"Al Anbar","country":"Iraq","latitude":32.73199,"longitude":43.3579,"coord_type":"general neighborhood","source_1":"DNGTS: https://www.shafaq dot com/ar/%D8%A3%D9%85%D9%80%D9%86/%D9%82%D8%B5%D9%81-%D8%AC%D8%AF%D9%8A%D8%AF-%D9%8A%D8%B7%D8%A7%D9%84-%D9%85%D9%82%D8%B1%D8%A7-%D9%84%D9%84%D8%AD%D8%B4%D8%AF-%D8%A7%D9%84%D8%B4%D8%B9%D8%A8%D9%8A-%D9%81%D9%8A-%D8%A7%D9%84%D9%8","source_2":"","sources":""}},{"type":"Feature","geometry":{"type":"Point","coordinates":[43.2507,36.15919999999999]},"properties":{"event_id":35,"data_org":"Green","post_date":"2026-03-07T00:00:00.000Z","pub_date":"2026-03-07T00:00:00.000Z","strikedate":"2026-03-07T00:00:00.000Z","event_type":"Reported Airstrike","actor":"UNK","site_type":"","siteStype":"","city":"","province":"Nineveh","country":"Iraq","latitude":36.1592,"longitude":43.2507,"coord_type":"general neighborhood","source_1":"DNGTS: https://www.shafaq dot com/ar/%D8%A3%D9%85%D9%80%D9%86/%D9%82%D8%B5%D9%81-%D8%AC%D8%AF%D9%8A%D8%AF-%D9%8A%D8%B7%D8%A7%D9%84-%D9%85%D9%82%D8%B1%D8%A7-%D9%84%D9%84%D8%AD%D8%B4%D8%AF-%D8%A7%D9%84%D8%B4%D8%B9%D8%A8%D9%8A-%D9%81%D9%8A-%D8%A7%D9%84%D9%8","source_2":"","sources":""}},{"type":"Feature","geometry":{"type":"Point","coordinates":[43.2507,36.15919999999999]},"properties":{"event_id":36,"data_org":"Green","post_date":"2026-03-09T00:00:00.000Z","pub_date":"2026-03-09T00:00:00.000Z","strikedate":"2026-03-09T00:00:00.000Z","event_type":"Reported Airstrike","actor":"UNK","site_type":"","siteStype":"","city":"Bartella","province":"Nineveh","country":"Iraq","latitude":36.1592,"longitude":43.2507,"coord_type":"general town","source_1":"https://x.com/Tammuz_Intel/status/2030976692291023274","source_2":"https://x.com/Tammuz_Intel/status/2030977214020255922","sources":""}},{"type":"Feature","geometry":{"type":"Point","coordinates":[39.9679,33.66958999999999]},"properties":{"event_id":37,"data_org":"Green","post_date":"2026-03-09T00:00:00.000Z","pub_date":"2026-03-10T00:00:00.000Z","strikedate":"2026-03-09T00:00:00.000Z","event_type":"Reported Airstrike","actor":"UNK","site_type":"","siteStype":"","city":"Akashat","province":"Al Anbar","country":"Iraq","latitude":33.66959,"longitude":39.9679,"coord_type":"general neighborhood","source_1":"DNGTS: https://shafaq dot com/ar/%D8%A3%D9%85%D9%80%D9%86/%D9%82%D8%B5%D9%81-%D8%AC%D9%88%D9%8A-%D8%AC%D8%AF%D9%8A%D8%AF-%D9%8A%D8%B3%D8%AA%D9%87%D8%AF%D9%81-%D8%A7%D9%84%D8%AD%D8%B4%D8%AF-%D8%A7%D9%84%D8%B4%D8%B9%D8%A8%D9%8A-%D8%BA%D8%B1%D8%A8%D9%8A-%D8","source_2":"","sources":""}},{"type":"Feature","geometry":{"type":"Point","coordinates":[44.3853,35.4696]},"properties":{"event_id":38,"data_org":"Green","post_date":"2026-03-10T00:00:00.000Z","pub_date":"2026-03-10T00:00:00.000Z","strikedate":"2026-03-10T00:00:00.000Z","event_type":"Reported Airstrike","actor":"UNK","site_type":"","siteStype":"","city":"Kirkuk City","province":"Kirkuk","country":"Iraq","latitude":35.4696,"longitude":44.3853,"coord_type":"general town","source_1":"https://x.com/Tammuz_Intel/status/2031298955401642396","source_2":"https://x.com/LizHurra/status/2031304263473725921","sources":""}},{"type":"Feature","geometry":{"type":"Point","coordinates":[41.157,34.32746]},"properties":{"event_id":39,"data_org":"Green","post_date":"2026-03-10T00:00:00.000Z","pub_date":"2026-03-10T00:00:00.000Z","strikedate":"2026-03-10T00:00:00.000Z","event_type":"Reported Airstrike","actor":"UNK","site_type":"","siteStype":"","city":"al Qaim","province":"Al Anbar","country":"Iraq","latitude":34.32746,"longitude":41.157,"coord_type":"general town","source_1":"DNGTS: https://shafaq dot com/ar/%D8%A3%D9%85%D9%80%D9%86/%D8%A7%D9%84%D8%AB%D8%A7%D9%84%D8%AB-%D8%AE%D9%84%D8%A7%D9%84-%D8%B3%D8%A7%D8%B9%D8%A7%D8%AA-5-%D9%85%D8%B5%D8%A7%D8%A8%D9%8A%D9%86-%D8%A8%D9%82%D8%B5%D9%81-%D8%AC%D9%88%D9%8A-%D8%A7%D8%B3%D8%AA%D","source_2":"","sources":""}},{"type":"Feature","geometry":{"type":"Point","coordinates":[41.16407,34.31693]},"properties":{"event_id":41,"data_org":"Green","post_date":"2026-03-11T00:00:00.000Z","pub_date":"2026-03-11T00:00:00.000Z","strikedate":"2026-03-11T00:00:00.000Z","event_type":"Reported Airstrike","actor":"UNK","site_type":"","siteStype":"","city":"al Qaim","province":"Al Anbar","country":"Iraq","latitude":34.31693,"longitude":41.16407,"coord_type":"general town","source_1":"DNGTS:https://www.shafaq dot com/ar/????/????-?????-????-???-??????-????-?????-??????-??-??-?-??-????","source_2":"","sources":""}},{"type":"Feature","geometry":{"type":"Point","coordinates":[44.28749,32.774179999999994]},"properties":{"event_id":42,"data_org":"Green","post_date":"2026-03-11T00:00:00.000Z","pub_date":"2026-03-11T00:00:00.000Z","strikedate":"2026-03-11T00:00:00.000Z","event_type":"Reported Airstrike","actor":"UNK","site_type":"","siteStype":"","city":"Musayyib","province":"Babylon","country":"Iraq","latitude":32.77418,"longitude":44.28749,"coord_type":"general town","source_1":"DNGTS: https://www.shafaq dot com/ar/????/????-??-??-???-??-??????-????-??????-??-?????-?-?????","source_2":"","sources":""}},{"type":"Feature","geometry":{"type":"Point","coordinates":[43.13,36.34000000000002]},"properties":{"event_id":47,"data_org":"Green","post_date":"2026-03-11T00:00:00.000Z","pub_date":"2026-03-11T00:00:00.000Z","strikedate":"2026-03-11T00:00:00.000Z","event_type":"Report of Explosion with Footage","actor":"UNK","site_type":"unknown","siteStype":"","city":"Mosul","province":"Nineveh","country":"Iraq","latitude":36.34,"longitude":43.13,"coord_type":"general town","source_1":"https://x.com/Tammuz_Intel/status/2031748427650842766","source_2":"","sources":""}},{"type":"Feature","geometry":{"type":"Point","coordinates":[39.9679,33.66958999999999]},"properties":{"event_id":51,"data_org":"Green","post_date":"2026-03-11T00:00:00.000Z","pub_date":"2026-03-12T00:00:00.000Z","strikedate":"2026-03-11T00:00:00.000Z","event_type":"Reported Airstrike","actor":"UNK","site_type":"military","siteStype":"","city":"al Qaim","province":"Al Anbar","country":"Iraq","latitude":33.66959,"longitude":39.9679,"coord_type":"general town","source_1":"https://x.com/JoeTruzman/status/2031933736108114229","source_2":"https://x.com/JoeTruzman/status/2031939929958502808","sources":""}},{"type":"Feature","geometry":{"type":"Point","coordinates":[44.366068,33.20993599999999]},"properties":{"event_id":53,"data_org":"Green","post_date":"2026-03-12T00:00:00.000Z","pub_date":"2026-03-12T00:00:00.000Z","strikedate":"2026-03-12T00:00:00.000Z","event_type":"Report of Explosion with Footage","actor":"US","site_type":"military","siteStype":"military : base","city":"Baghdad","province":"Baghdad","country":"Iraq","latitude":33.209936,"longitude":44.366068,"coord_type":"exact","source_1":"https://x.com/Tammuz_Intel/status/2032108637632573550","source_2":"DNGTS: https://shafaq dot com/en/Security/One-killed-three-wounded-in-airstrike-on-Baghdad-s-Saqr-Camp","sources":""}},{"type":"Feature","geometry":{"type":"Point","coordinates":[44.2364,32.91787999999999]},"properties":{"event_id":54,"data_org":"Green","post_date":"2026-03-12T00:00:00.000Z","pub_date":"2026-03-12T00:00:00.000Z","strikedate":"2026-03-12T00:00:00.000Z","event_type":"Reported Airstrike","actor":"UNK","site_type":"military","siteStype":"","city":"Jurf Sakhar","province":"Babylon","country":"Iraq","latitude":32.91788,"longitude":44.2364,"coord_type":"general town","source_1":"DNGTS: https://www.shafaq dot com/ar/????/????-????-??????-????-????-?-???-????-?????-????","source_2":"https://x.com/sentdefender/status/2032105231115247882","sources":""}},{"type":"Feature","geometry":{"type":"Point","coordinates":[43.585232999999995,35.767977]},"properties":{"event_id":55,"data_org":"Green","post_date":"2026-03-12T00:00:00.000Z","pub_date":"2026-03-13T00:00:00.000Z","strikedate":"2026-03-12T00:00:00.000Z","event_type":"Reported Airstrike","actor":"US","site_type":"military","siteStype":"military : base","city":"Makhmour","province":"Ninewa","country":"Iraq","latitude":35.767977,"longitude":43.585233,"coord_type":"exact","source_1":"https://x.com/WillUnderhill23/status/2032221576699994436?s=20","source_2":"https://x.com/Archer83Able/status/2032145743130030395?s=20","sources":""}},{"type":"Feature","geometry":{"type":"Point","coordinates":[43.786483,33.344629999999995]},"properties":{"event_id":56,"data_org":"Green","post_date":"2026-03-12T00:00:00.000Z","pub_date":"2026-03-13T00:00:00.000Z","strikedate":"2026-03-12T00:00:00.000Z","event_type":"Reported Airstrike","actor":"UNK","site_type":"military","siteStype":"military : base","city":"Fallujah","province":"Anbar","country":"Iraq","latitude":33.34463,"longitude":43.786483,"coord_type":"general town","source_1":"DNGTS: https://shafaq dot com/ar/%D8%A3%D9%85%D9%80%D9%86/%D9%82%D8%B5%D9%81-%D8%AC%D9%88%D9%8A-%D9%8A%D8%B7%D8%A7%D9%84-%D9%85%D9%82%D8%A7%D8%B1-%D9%84%D9%84%D8%B9%D8%B5%D8%A7-%D8%A8-%D9%88%D8%AD%D8%B2%D8%A8-%D8%A7%D9%84%D9%84%D9%87-%D9%81%D9%8A-%D8%A7%","source_2":"","sources":""}},{"type":"Feature","geometry":{"type":"Point","coordinates":[43.7119,34.600300000000004]},"properties":{"event_id":57,"data_org":"Green","post_date":"2026-03-13T00:00:00.000Z","pub_date":"2026-03-13T00:00:00.000Z","strikedate":"2026-03-13T00:00:00.000Z","event_type":"Reported Airstrike","actor":"US","site_type":"military","siteStype":"military : base","city":"Tikrit","province":"Salah al Din","country":"Iraq","latitude":34.6003,"longitude":43.7119,"coord_type":"general town","source_1":"https://x.com/Osint613/status/2032444410592379231","source_2":"DNGTS: https://shafaq dot com/ar/%D8%A3%D9%85%D9%80%D9%86/%D9%82%D8%B5%D9%81-%D8%AC%D9%88%D9%8A-%D9%8A%D8%B7%D8%A7%D9%84-%D9%85%D9%82%D8%A7%D8%B1-%D9%84%D9%84%D8%B9%D8%B5%D8%A7-%D8%A8-%D9%88%D8%AD%D8%B2%D8%A8-%D8%A7%D9%84%D9%84%D9%87-%D9%81%D9%8A-%D8%A7%","sources":""}},{"type":"Feature","geometry":{"type":"Point","coordinates":[44.284047,35.513034]},"properties":{"event_id":58,"data_org":"Green","post_date":"2026-03-13T00:00:00.000Z","pub_date":"2026-03-14T00:00:00.000Z","strikedate":"2026-03-13T00:00:00.000Z","event_type":"Reported Airstrike","actor":"UNK","site_type":"military","siteStype":"military : base","city":"Kumbatlar","province":"Kirkuk","country":"Iraq","latitude":35.513034,"longitude":44.284047,"coord_type":"exact","source_1":"https://x.com/Tammuz_Intel/status/2032550937802190934","source_2":"https://x.com/Tammuz_Intel/status/2032551799442325979","sources":""}},{"type":"Feature","geometry":{"type":"Point","coordinates":[41.16407,34.31693]},"properties":{"event_id":59,"data_org":"Green","post_date":"2026-03-13T00:00:00.000Z","pub_date":"2026-03-14T00:00:00.000Z","strikedate":"2026-03-13T00:00:00.000Z","event_type":"Reported Airstrike","actor":"UNK","site_type":"military","siteStype":"military : base","city":"al Qaim","province":"Iraq","country":"Iraq","latitude":34.31693,"longitude":41.16407,"coord_type":"general town","source_1":"https://x.com/Tammuz_Intel/status/2032556417165480100","source_2":"DNGTS: https://shafaq dot com/ar/????/????-????-????-????-?????-??????-????-??????","sources":""}},{"type":"Feature","geometry":{"type":"Point","coordinates":[43.36049400000001,36.358233]},"properties":{"event_id":60,"data_org":"Green","post_date":"2026-03-13T00:00:00.000Z","pub_date":"2026-03-14T00:00:00.000Z","strikedate":"2026-03-13T00:00:00.000Z","event_type":"Report of Explosion with Footage","actor":"UNK","site_type":"","siteStype":"military : unknown","city":"Mosul","province":"Nineveh","country":"Iraq","latitude":36.358233,"longitude":43.360494,"coord_type":"exact","source_1":"https://x.com/kimhvik2/status/2032581770810429530?s=20","source_2":"https://x.com/Tammuz_Intel/status/2032583378562588765","sources":""}},{"type":"Feature","geometry":{"type":"Point","coordinates":[44.434536,33.29551]},"properties":{"event_id":61,"data_org":"Green","post_date":"2026-03-13T00:00:00.000Z","pub_date":"2026-03-14T00:00:00.000Z","strikedate":"2026-03-13T00:00:00.000Z","event_type":"Reported Airstrike","actor":"UNK","site_type":"","siteStype":"","city":"Baghdad","province":"Baghdad","country":"Iraq","latitude":33.29551,"longitude":44.434536,"coord_type":"exact","source_1":"DNGTS: https://shafaq dot com/ar/????/?????-?????-?????-????-?-????-12-????-?????-??????-?????-??????-?-????????","source_2":"DNGTS: https://shafaq dot com/ar/????/???-?????-?????-???????-???????-???????-???-???-??-??????-?????-??????","sources":""}},{"type":"Feature","geometry":{"type":"Point","coordinates":[44.619834,34.88391899999999]},"properties":{"event_id":66,"data_org":"Green","post_date":"2026-03-14T00:00:00.000Z","pub_date":"2026-03-14T00:00:00.000Z","strikedate":"2026-03-14T00:00:00.000Z","event_type":"Reported Airstrike","actor":"UNK","site_type":"","siteStype":"military : base","city":"","province":"Salah al Din","country":"Iraq","latitude":34.883919,"longitude":44.619834,"coord_type":"general town","source_1":"DNGTS: https://shafaq dot com/ar/????/???????-????-????-4-?????-?????-??????-??-????-?????","source_2":"DNGTS: https://shafaq dot com/ar/????/???-??-??????-????-?????-??????-???-????-?????","sources":""}},{"type":"Feature","geometry":{"type":"Point","coordinates":[44.2364,32.91787999999999]},"properties":{"event_id":68,"data_org":"Green","post_date":"2026-03-15T00:00:00.000Z","pub_date":"2026-03-15T00:00:00.000Z","strikedate":"1899-11-30T00:00:00.000Z","event_type":"Confirmed Airstrike","actor":"UNK","site_type":"military","siteStype":"military : base","city":"Jurf Sakhar","province":"Babylon","country":"Iraq","latitude":32.91788,"longitude":44.2364,"coord_type":"general town","source_1":"https://x.com/obretix/status/2033234721954582885?s=20","source_2":"https://x.com/obretix/status/2028193573288501306?s=20","sources":""}},{"type":"Feature","geometry":{"type":"Point","coordinates":[44.2364,32.91787999999999]},"properties":{"event_id":73,"data_org":"Green","post_date":"2026-03-16T00:00:00.000Z","pub_date":"2026-03-16T00:00:00.000Z","strikedate":"2026-03-16T00:00:00.000Z","event_type":"Reported Airstrike","actor":"UNK","site_type":"military","siteStype":"military : base","city":"Jurf Sakhar","province":"Babylon","country":"Iraq","latitude":32.91788,"longitude":44.2364,"coord_type":"general town","source_1":"https://x.com/Tammuz_Intel/status/2033456951628062972","source_2":"","sources":""}},{"type":"Feature","geometry":{"type":"Point","coordinates":[42.985112,36.461491]},"properties":{"event_id":74,"data_org":"Green","post_date":"2026-03-16T00:00:00.000Z","pub_date":"2026-03-16T00:00:00.000Z","strikedate":"2026-03-16T00:00:00.000Z","event_type":"Reported Airstrike","actor":"UNK","site_type":"military","siteStype":"military : base","city":"Tall Kayfa","province":"Nineveh","country":"Iraq","latitude":36.461491,"longitude":42.985112,"coord_type":"exact","source_1":"","source_2":"DNGTS: https://www.shafaq.com/en/Security/PMF-members-wounded-in-airstrike-near-Mosul-dam","sources":""}},{"type":"Feature","geometry":{"type":"Point","coordinates":[41.16407,34.31693]},"properties":{"event_id":75,"data_org":"Green","post_date":"2026-03-16T00:00:00.000Z","pub_date":"2026-03-16T00:00:00.000Z","strikedate":"2026-03-16T00:00:00.000Z","event_type":"Reported Airstrike","actor":"UNK","site_type":"military","siteStype":"military : base","city":"al Qaim","province":"Al Anbar","country":"Iraq","latitude":34.31693,"longitude":41.16407,"coord_type":"general town","source_1":"https://x.com/Tammuz_Intel/status/2033540928342757715","source_2":"","sources":""}},{"type":"Feature","geometry":{"type":"Point","coordinates":[44.366667,33.933333]},"properties":{"event_id":77,"data_org":"Green","post_date":"2026-03-16T00:00:00.000Z","pub_date":"2026-03-16T00:00:00.000Z","strikedate":"2026-03-16T00:00:00.000Z","event_type":"Reported Airstrike","actor":"UNK","site_type":"military","siteStype":"military : airbase","city":"","province":"Salah al Din","country":"Iraq","latitude":33.933333,"longitude":44.366667,"coord_type":"general neighborhood","source_1":"https://x.com/hey_itsmyturn/status/2033583106297372944","source_2":"","sources":""}},{"type":"Feature","geometry":{"type":"Point","coordinates":[44.24007,33.1655]},"properties":{"event_id":78,"data_org":"Green","post_date":"2026-03-16T00:00:00.000Z","pub_date":"2026-03-17T00:00:00.000Z","strikedate":"2026-03-16T00:00:00.000Z","event_type":"Reported Airstrike","actor":"UNK","site_type":"unknown","siteStype":"","city":"Baghdad","province":"Baghdad","country":"Iraq","latitude":33.1655,"longitude":44.24007,"coord_type":"exact","source_1":"DNGTS: https://www.shafaq dot com/ar/????/???-????-?????-????-???????-????-????????-??????","source_2":"DNGTS: https://www.shafaq dot com/ar/????/???-??-????-?????-????-???????-??????-?????-??-????????-??????","sources":""}},{"type":"Feature","geometry":{"type":"Point","coordinates":[44.2364,32.91787999999999]},"properties":{"event_id":80,"data_org":"Green","post_date":"2026-03-17T00:00:00.000Z","pub_date":"2026-03-17T00:00:00.000Z","strikedate":"2026-03-17T00:00:00.000Z","event_type":"Reported Airstrike","actor":"UNK","site_type":"unknown","siteStype":"","city":"Jurf Sakhr","province":"Babil","country":"Iraq","latitude":32.91788,"longitude":44.2364,"coord_type":"general town","source_1":"DNGTS: https://www.shafaq dot com/ar/????/???-???-??????-???-?????-??-????-6","source_2":"","sources":""}},{"type":"Feature","geometry":{"type":"Point","coordinates":[43.518369,33.63334400000001]},"properties":{"event_id":82,"data_org":"Green","post_date":"2026-03-17T00:00:00.000Z","pub_date":"2026-03-17T00:00:00.000Z","strikedate":"2026-03-17T00:00:00.000Z","event_type":"Reported Airstrike","actor":"UNK","site_type":"military","siteStype":"","city":"Tharthar City","province":"Anbar","country":"Iraq","latitude":33.633344,"longitude":43.518369,"coord_type":"general town","source_1":"DNGTS: https://www.shafaq dot com/ar/????/????-????-??????-????-?????-?????-??-??-??-????","source_2":"","sources":""}},{"type":"Feature","geometry":{"type":"Point","coordinates":[44.105443,35.683976999999985]},"properties":{"event_id":83,"data_org":"Green","post_date":"2026-03-17T00:00:00.000Z","pub_date":"2026-03-17T00:00:00.000Z","strikedate":"2026-03-17T00:00:00.000Z","event_type":"Reported Airstrike","actor":"UNK","site_type":"military","siteStype":"","city":"","province":"Kirkuk","country":"Iraq","latitude":35.683977,"longitude":44.105443,"coord_type":"general town","source_1":"DNGTS: https://www.shafaq dot com/ar/????/??????-???-?-???-??????-?????-?????-??????-????-????-?????-?????","source_2":"","sources":""}},{"type":"Feature","geometry":{"type":"Point","coordinates":[44.239851,32.91833199999999]},"properties":{"event_id":84,"data_org":"Green","post_date":"2026-03-17T00:00:00.000Z","pub_date":"2026-03-17T00:00:00.000Z","strikedate":"2026-03-17T00:00:00.000Z","event_type":"Reported Airstrike","actor":"UNK","site_type":"military","siteStype":"","city":"Jurf Sakhr","province":"Babil","country":"Iraq","latitude":32.918332,"longitude":44.239851,"coord_type":"general town","source_1":"https://x.com/Tammuz_Intel/status/2033945008651305075","source_2":"","sources":""}},{"type":"Feature","geometry":{"type":"Point","coordinates":[41.16407,34.31693]},"properties":{"event_id":85,"data_org":"Green","post_date":"2026-03-18T00:00:00.000Z","pub_date":"2026-03-18T00:00:00.000Z","strikedate":"2026-03-18T00:00:00.000Z","event_type":"Reported Airstrike","actor":"UNK","site_type":"military","siteStype":"","city":"al Qaim","province":"Anbar","country":"Iraq","latitude":34.31693,"longitude":41.16407,"coord_type":"general town","source_1":"https://x.com/Tammuz_Intel/status/2034257904920854698","source_2":"https://x.com/Tammuz_Intel/status/2034270682909999547","sources":""}},{"type":"Feature","geometry":{"type":"Point","coordinates":[41.156987,34.321658]},"properties":{"event_id":86,"data_org":"Green","post_date":"2026-03-18T00:00:00.000Z","pub_date":"2026-03-18T00:00:00.000Z","strikedate":"2026-03-18T00:00:00.000Z","event_type":"Reported Airstrike","actor":"UNK","site_type":"military","siteStype":"","city":"al Qaim","province":"Anbar","country":"Iraq","latitude":34.321658,"longitude":41.156987,"coord_type":"general town","source_1":"DNGTS: https://www.shafaq dot com/ar/????/??-????-???-???-??????-????-?????-?????-?????-??????","source_2":"","sources":""}},{"type":"Feature","geometry":{"type":"Point","coordinates":[44.396295,35.219576]},"properties":{"event_id":90,"data_org":"Green","post_date":"2026-03-18T00:00:00.000Z","pub_date":"2026-03-18T00:00:00.000Z","strikedate":"2026-03-18T00:00:00.000Z","event_type":"Reported Airstrike","actor":"UNK","site_type":"military","siteStype":"","city":"","province":"Kirkuk","country":"Iraq","latitude":35.219576,"longitude":44.396295,"coord_type":"general town","source_1":"DNGTS: https://www.shafaq dot com/ar/????/???-????-??????-????-?????-??????-??-?????","source_2":"","sources":""}},{"type":"Feature","geometry":{"type":"Point","coordinates":[43.361281,36.36214699999999]},"properties":{"event_id":91,"data_org":"Green","post_date":"2026-03-19T00:00:00.000Z","pub_date":"2026-03-19T00:00:00.000Z","strikedate":"2026-03-19T00:00:00.000Z","event_type":"Reported Airstrike","actor":"UNK","site_type":"military","siteStype":"","city":"Khazna Tapa","province":"Ninewa","country":"Iraq","latitude":36.362147,"longitude":43.361281,"coord_type":"general town","source_1":"DNGTS: https://www.shafaq dot com/ar/????/????-?-????-4-???????-??-?????-????-????-?????","source_2":"","sources":""}},{"type":"Feature","geometry":{"type":"Point","coordinates":[44.620785,34.88114]},"properties":{"event_id":92,"data_org":"Green","post_date":"2026-03-19T00:00:00.000Z","pub_date":"2026-03-19T00:00:00.000Z","strikedate":"2026-03-19T00:00:00.000Z","event_type":"Reported Airstrike","actor":"UNK","site_type":"military","siteStype":"","city":"Tuz Khurmatu","province":"Salah al Din","country":"Iraq","latitude":34.88114,"longitude":44.620785,"coord_type":"general town","source_1":"DNGTS: https://www.shafaq dot com/ar/????/???????-???-?????-??????-???????-??????-??-????-?????","source_2":"","sources":""}},{"type":"Feature","geometry":{"type":"Point","coordinates":[43.122719999999994,36.38673200000001]},"properties":{"event_id":93,"data_org":"Green","post_date":"2026-03-19T00:00:00.000Z","pub_date":"2026-03-19T00:00:00.000Z","strikedate":"2026-03-19T00:00:00.000Z","event_type":"Reported Airstrike","actor":"UNK","site_type":"military","siteStype":"military : base","city":"Mosul","province":"Ninewa","country":"Iraq","latitude":36.386732,"longitude":43.12272,"coord_type":"exact","source_1":"DNGTS: https://shafaq.com/ar/%D8%A3%D9%85%D9%80%D9%86/%D9%82%D8%B5%D9%81-%D8%AC%D9%88%D9%8A-%D9%8A%D8%B3%D8%AA%D9%87%D8%AF%D9%81-%D9%85%D9%82%D8%B1-%D8%B9%D9%85%D9%84%D9%8A%D8%A7%D8%AA-%D8%A7%D9%84%D8%AD%D8%B4%D8%AF-%D8%A7%D9%84%D8%B4%D8%B9%D8%A8%D9%8A-%","source_2":"https://x.com/Tammuz_Intel/status/2034642594941084018","sources":""}},{"type":"Feature","geometry":{"type":"Point","coordinates":[44.367336,33.715436]},"properties":{"event_id":94,"data_org":"Green","post_date":"2026-03-19T00:00:00.000Z","pub_date":"2026-03-19T00:00:00.000Z","strikedate":"2026-03-20T00:00:00.000Z","event_type":"Reported Airstrike","actor":"UNK","site_type":"military","siteStype":"","city":"Tarmiya","province":"Baghdad","country":"Iraq","latitude":33.715436,"longitude":44.367336,"coord_type":"general town","source_1":"DNGTS: https://www.shafaq dot com/ar/????/???-???-??????-??????-??-????-?????","source_2":"","sources":""}},{"type":"Feature","geometry":{"type":"Point","coordinates":[44.075763,35.25739299999999]},"properties":{"event_id":95,"data_org":"Green","post_date":"2026-03-19T00:00:00.000Z","pub_date":"2026-03-20T00:00:00.000Z","strikedate":"2026-03-19T00:00:00.000Z","event_type":"Reported Airstrike","actor":"UNK","site_type":"military","siteStype":"","city":"","province":"Salah al Din","country":"Iraq","latitude":35.257393,"longitude":44.075763,"coord_type":"general town","source_1":"DNGTS: https://www.shafaq dot com/ar/????/???-???-??????-?????-???6-??-?????-?????-?????","source_2":"","sources":""}},{"type":"Feature","geometry":{"type":"Point","coordinates":[44.619834,34.88391899999999]},"properties":{"event_id":96,"data_org":"Green","post_date":"2026-03-20T00:00:00.000Z","pub_date":"2026-03-21T00:00:00.000Z","strikedate":"2026-03-20T00:00:00.000Z","event_type":"Reported Airstrike","actor":"UNK","site_type":"military","siteStype":"","city":"Tuz Khurmatu","province":"Salah al Din","country":"Iraq","latitude":34.883919,"longitude":44.619834,"coord_type":"general town","source_1":"DNGTS: https://www.shafaq dot com/ar/????/???-???-??????-????-?????-??????-??-????-?????","source_2":"","sources":""}},{"type":"Feature","geometry":{"type":"Point","coordinates":[41.16407,34.31693]},"properties":{"event_id":97,"data_org":"Green","post_date":"2026-03-20T00:00:00.000Z","pub_date":"2026-03-21T00:00:00.000Z","strikedate":"2026-03-20T00:00:00.000Z","event_type":"Reported Airstrike","actor":"UNK","site_type":"military","siteStype":"","city":"al Qaim","province":"Anbar","country":"Iraq","latitude":34.31693,"longitude":41.16407,"coord_type":"general town","source_1":"https://x.com/Tammuz_Intel/status/2035174698707796343","source_2":"","sources":""}},{"type":"Feature","geometry":{"type":"Point","coordinates":[44.620792,34.880979999999994]},"properties":{"event_id":98,"data_org":"Green","post_date":"2026-03-21T00:00:00.000Z","pub_date":"2026-03-21T00:00:00.000Z","strikedate":"2026-03-21T00:00:00.000Z","event_type":"Reported Airstrike","actor":"UNK","site_type":"military","siteStype":"","city":"Tuz Khurmatu","province":"Salah al Din","country":"Iraq","latitude":34.88098,"longitude":44.620792,"coord_type":"general neighborhood","source_1":"DNGTS: https://www.shafaq dot com/ar/????/??????-????-?????-???-???-??????-????-?????-??????-??-????-?????","source_2":"https://www.google.com/maps/place/%D9%85%D8%B7%D8%A7%D8%B1+%D8%AD%D9%84%D9%8A%D9%88%D9%87+%D9%87%D9%8A%D8%A6%D9%87+%D8%A7%D9%84%D8%AD%D8%B4%D8%AF+%D8%A7%D9%84%D8%B4%D8%B9%D8%A8%D9%8A+%D8%A7%D9%84%D9%85%D9%82%D8%B1+%D8%A7%D9%84%D9%85%D8%B3%D9%8A%D8%B7%D8%","sources":""}},{"type":"Feature","geometry":{"type":"Point","coordinates":[39.9679,33.66958999999999]},"properties":{"event_id":99,"data_org":"Green","post_date":"2026-03-21T00:00:00.000Z","pub_date":"2026-03-21T00:00:00.000Z","strikedate":"2026-03-21T00:00:00.000Z","event_type":"Reported Airstrike","actor":"UNK","site_type":"military","siteStype":"","city":"Akashat","province":"Anbar","country":"Iraq","latitude":33.66959,"longitude":39.9679,"coord_type":"general neighborhood","source_1":"https://x.com/Tammuz_Intel/status/2035362588498788593","source_2":"","sources":""}},{"type":"Feature","geometry":{"type":"Point","coordinates":[43.066956,36.36414299999999]},"properties":{"event_id":100,"data_org":"Green","post_date":"2026-03-21T00:00:00.000Z","pub_date":"2026-03-22T00:00:00.000Z","strikedate":"2026-03-21T00:00:00.000Z","event_type":"Reported Airstrike","actor":"UNK","site_type":"military","siteStype":"","city":"Mosul","province":"Ninewa","country":"Iraq","latitude":36.364143,"longitude":43.066956,"coord_type":"general neighborhood","source_1":"DNGTS: https://shafaq.com/ar/%D8%A3%D9%85%D9%80%D9%86/%D9%82%D8%B5%D9%81-%D8%AC%D9%88%D9%8A-%D9%8A%D8%B3%D8%AA%D9%87%D8%AF%D9%81-%D9%85%D9%82%D8%B1%D8%A7%D8%AA-%D9%84%D9%84%D8%AD%D8%B4%D8%AF-%D8%A7%D9%84%D8%B4%D8%B9%D8%A8%D9%8A-%D9%81%D9%8A-%D8%B3%D9%87%","source_2":"https://x.com/Tammuz_Intel/status/2035484506354762016","sources":""}},{"type":"Feature","geometry":{"type":"Point","coordinates":[44.2364,32.91787999999999]},"properties":{"event_id":102,"data_org":"Green","post_date":"2026-03-22T00:00:00.000Z","pub_date":"2026-03-22T00:00:00.000Z","strikedate":"2026-03-22T00:00:00.000Z","event_type":"Reported Airstrike","actor":"UNK","site_type":"military","siteStype":"","city":"Jurf Sakhr","province":"Babil","country":"Iraq","latitude":32.91788,"longitude":44.2364,"coord_type":"general town","source_1":"DNGTS: https://shafaq dot com/ar/????/???????-?????-?????-??????-???????-??????-?????-????","source_2":"https://x.com/Tammuz_Intel/status/2035769544371831169","sources":""}},{"type":"Feature","geometry":{"type":"Point","coordinates":[43.604765,34.758109999999995]},"properties":{"event_id":104,"data_org":"Green","post_date":"2026-03-23T00:00:00.000Z","pub_date":"2026-03-23T00:00:00.000Z","strikedate":"2026-03-23T00:00:00.000Z","event_type":"Reported Airstrike","actor":"UNK","site_type":"military","siteStype":"military : base","city":"al Hamra","province":"Salah al Din","country":"Iraq","latitude":34.75811,"longitude":43.604765,"coord_type":"general town","source_1":"DNGTS: https://shafaq dot com/ar/????/???-???-??????-????-?????-??????-??-????-?????-1","source_2":"https://x.com/LizHurra/status/2036064928952467628","sources":""}},{"type":"Feature","geometry":{"type":"Point","coordinates":[43.961386,33.434068999999994]},"properties":{"event_id":105,"data_org":"Green","post_date":"2026-03-23T00:00:00.000Z","pub_date":"2026-03-23T00:00:00.000Z","strikedate":"2026-03-23T00:00:00.000Z","event_type":"Reported Airstrike","actor":"UNK","site_type":"military","siteStype":"military : base","city":"Karma","province":"Anbar","country":"Iraq","latitude":33.434069,"longitude":43.961386,"coord_type":"general town","source_1":"DNGTS: https://shafaq dot com/ar/????/???-???-??????-????-?????-??????-??-????-?????-1","source_2":"https://x.com/LizHurra/status/2036064928952467628","sources":""}},{"type":"Feature","geometry":{"type":"Point","coordinates":[43.104217,36.42256600000001]},"properties":{"event_id":106,"data_org":"Green","post_date":"2026-03-24T00:00:00.000Z","pub_date":"2026-03-24T00:00:00.000Z","strikedate":"2026-03-24T00:00:00.000Z","event_type":"Confirmed Airstrike","actor":"US","site_type":"military","siteStype":"military : hq","city":"Mosul","province":"Ninewa","country":"Iraq","latitude":36.422566,"longitude":43.104217,"coord_type":"exact","source_1":"https://t.me/nayaforiraq/63949","source_2":"https://x.com/acceladealer/status/2036397940374225291","sources":""}},{"type":"Feature","geometry":{"type":"Point","coordinates":[43.162413,36.371898999999985]},"properties":{"event_id":107,"data_org":"Green","post_date":"2026-03-24T00:00:00.000Z","pub_date":"2026-03-24T00:00:00.000Z","strikedate":"2026-03-24T00:00:00.000Z","event_type":"Reported Airstrike","actor":"US","site_type":"military","siteStype":"","city":"Mosul","province":"Ninewa","country":"Iraq","latitude":36.371899,"longitude":43.162413,"coord_type":"general town","source_1":"https://x.com/Tammuz_Intel/status/2036387672403440085","source_2":"","sources":""}},{"type":"Feature","geometry":{"type":"Point","coordinates":[43.489766,34.92970199999999]},"properties":{"event_id":109,"data_org":"Green","post_date":"2026-03-24T00:00:00.000Z","pub_date":"2026-03-24T00:00:00.000Z","strikedate":"2026-03-24T00:00:00.000Z","event_type":"Reported Airstrike","actor":"UNK","site_type":"military","siteStype":"","city":"Baiji","province":"Salah al Din","country":"Iraq","latitude":34.929702,"longitude":43.489766,"coord_type":"general town","source_1":"DNGTS: https://www.shafaq dot com/ar/????/???-???-??????-????-?????-??????-??-????-?????-1-1","source_2":"DNGTS: https://www.shafaq dot com/ar/????/????-?????-7-?????-???-??-??-???????-??????-???????-????-?????-??????","sources":""}},{"type":"Feature","geometry":{"type":"Point","coordinates":[43.595218,33.374288]},"properties":{"event_id":112,"data_org":"Green","post_date":"2026-03-25T00:00:00.000Z","pub_date":"2026-03-25T00:00:00.000Z","strikedate":"2026-03-25T00:00:00.000Z","event_type":"Reported Airstrike","actor":"UNK","site_type":"military","siteStype":"military : base","city":"Habbaniyah","province":"Anbar","country":"Iraq","latitude":33.374288,"longitude":43.595218,"coord_type":"general town","source_1":"DNGTS: https://shafaq dot com/ar/%D8%A3%D9%85%D9%80%D9%86/%D9%82%D8%B5%D9%81-%D8%AC%D9%88%D9%8A-%D9%85%D9%83%D8%AB%D9%81-%D9%8A%D8%B3%D8%AA%D9%87%D8%AF%D9%81-%D9%85%D9%82%D8%B1%D8%A7-%D9%84%D9%84%D8%AD%D8%B4%D8%AF-%D8%A7%D9%84%D8%B4%D8%B9%D8%A8%D9%8A-%D8","source_2":"","sources":""}},{"type":"Feature","geometry":{"type":"Point","coordinates":[43.587613999999995,33.378225]},"properties":{"event_id":113,"data_org":"Green","post_date":"2026-03-25T00:00:00.000Z","pub_date":"2026-03-25T00:00:00.000Z","strikedate":"2026-03-25T00:00:00.000Z","event_type":"Reported Airstrike","actor":"UNK","site_type":"military","siteStype":"military : base","city":"Habbaniyah","province":"Anbar","country":"Iraq","latitude":33.378225,"longitude":43.587614,"coord_type":"exact","source_1":"https://x.com/modmiliq/status/2036714426657657222","source_2":"https://x.com/obretix/status/2037263604831883681","sources":""}},{"type":"Feature","geometry":{"type":"Point","coordinates":[41.16407,34.31693]},"properties":{"event_id":114,"data_org":"Green","post_date":"2026-03-25T00:00:00.000Z","pub_date":"2026-03-25T00:00:00.000Z","strikedate":"2026-03-25T00:00:00.000Z","event_type":"Reported Airstrike","actor":"UNK","site_type":"military","siteStype":"","city":"al Qaim","province":"Anbar","country":"Iraq","latitude":34.31693,"longitude":41.16407,"coord_type":"general town","source_1":"https://x.com/LawkGhafuri/status/2036773317974126715","source_2":"https://x.com/Tammuz_Intel/status/2036742833176998332","sources":""}},{"type":"Feature","geometry":{"type":"Point","coordinates":[43.489766,34.92970199999999]},"properties":{"event_id":115,"data_org":"Green","post_date":"2026-03-25T00:00:00.000Z","pub_date":"2026-03-25T00:00:00.000Z","strikedate":"2026-03-25T00:00:00.000Z","event_type":"Reported Airstrike","actor":"US","site_type":"military","siteStype":"military : unknown","city":"Baiji","province":"Salah al Din","country":"Iraq","latitude":34.929702,"longitude":43.489766,"coord_type":"general town","source_1":"http://x.com/hey_itsmyturn/status/2036807232776437761","source_2":"DNGTS: https://shafaq dot com/ar/%D8%A3%D9%85%D9%80%D9%86/%D8%B3%D9%85%D8%A7%D8%B9-%D8%AF%D9%88%D9%8A-%D8%A7%D9%86%D9%81%D8%AC%D8%A7%D8%B1-%D8%B4%D9%85%D8%A7%D9%84%D9%8A-%D8%B5%D9%84%D8%A7%D8%AD-%D8%A7%D9%84%D8%AF%D9%8A%D9%86","sources":""}},{"type":"Feature","geometry":{"type":"Point","coordinates":[44.585549,34.726549]},"properties":{"event_id":117,"data_org":"Green","post_date":"2026-03-26T00:00:00.000Z","pub_date":"2026-03-26T00:00:00.000Z","strikedate":"2026-03-26T00:00:00.000Z","event_type":"Reported Airstrike","actor":"UNK","site_type":"military","siteStype":"military : base","city":"Amerli","province":"Salah al Din","country":"Iraq","latitude":34.726549,"longitude":44.585549,"coord_type":"general town","source_1":"DNGTS: https://www.shafaq dot com/ar/????/?????-????-??????-????-??????-????-????-?????","source_2":"","sources":""}},{"type":"Feature","geometry":{"type":"Point","coordinates":[44.105443,35.683976999999985]},"properties":{"event_id":118,"data_org":"Green","post_date":"2026-03-26T00:00:00.000Z","pub_date":"2026-03-26T00:00:00.000Z","strikedate":"2026-03-26T00:00:00.000Z","event_type":"Reported Airstrike","actor":"UNK","site_type":"military","siteStype":"","city":"Dibis","province":"Kirkuk","country":"Iraq","latitude":35.683977,"longitude":44.105443,"coord_type":"general town","source_1":"DNGTS: https://www.shafaq dot com/ar/????/???-???-??????-?????-??????-??-?????","source_2":"","sources":""}},{"type":"Feature","geometry":{"type":"Point","coordinates":[41.16407,34.31693]},"properties":{"event_id":119,"data_org":"Green","post_date":"2026-03-26T00:00:00.000Z","pub_date":"2026-03-27T00:00:00.000Z","strikedate":"2026-03-26T00:00:00.000Z","event_type":"Reported Airstrike","actor":"UNK","site_type":"military","siteStype":"military : base","city":"al Qaim","province":"Anbar","country":"Iraq","latitude":34.31693,"longitude":41.16407,"coord_type":"general town","source_1":"DNGTS: https://www.shafaq dot com/ar/????/????-????-??????-????-????-??????-???-????-????-??????","source_2":"https://x.com/Tammuz_Intel/status/2037268536276468172","sources":""}},{"type":"Feature","geometry":{"type":"Point","coordinates":[44.2364,32.91787999999999]},"properties":{"event_id":120,"data_org":"Green","post_date":"2026-03-27T00:00:00.000Z","pub_date":"2026-03-28T00:00:00.000Z","strikedate":"2026-03-27T00:00:00.000Z","event_type":"Reported Airstrike","actor":"UNK","site_type":"military","siteStype":"","city":"Jurf Sakhr","province":"Babil","country":"Iraq","latitude":32.91788,"longitude":44.2364,"coord_type":"general town","source_1":"https://x.com/Tammuz_Intel/status/2037667929068560840","source_2":"","sources":""}},{"type":"Feature","geometry":{"type":"Point","coordinates":[45.066754,32.909993]},"properties":{"event_id":121,"data_org":"Green","post_date":"2026-03-27T00:00:00.000Z","pub_date":"2026-03-28T00:00:00.000Z","strikedate":"2026-03-27T00:00:00.000Z","event_type":"Reported Airstrike","actor":"UNK","site_type":"military","siteStype":"","city":"Azizyah","province":"Wasit","country":"Iraq","latitude":32.909993,"longitude":45.066754,"coord_type":"general town","source_1":"DNGTS: https://www.shafaq dot com/ar/????/???-???-??-????","source_2":"","sources":""}},{"type":"Feature","geometry":{"type":"Point","coordinates":[43.08904999999999,36.40780999999999]},"properties":{"event_id":126,"data_org":"Green","post_date":"2026-03-28T00:00:00.000Z","pub_date":"2026-03-29T00:00:00.000Z","strikedate":"2026-03-28T00:00:00.000Z","event_type":"Report of Explosion with Footage","actor":"US","site_type":"military","siteStype":"military : hq","city":"Mosul","province":"Ninewa","country":"Iraq","latitude":36.40781,"longitude":43.08905,"coord_type":"general neighborhood","source_1":"https://x.com/hey_itsmyturn/status/2038102628442280311?s=20","source_2":"https://x.com/hey_itsmyturn/status/2038106898696654896?s=20","sources":""}},{"type":"Feature","geometry":{"type":"Point","coordinates":[44.624969,34.884339]},"properties":{"event_id":128,"data_org":"Green","post_date":"2026-03-29T00:00:00.000Z","pub_date":"2026-03-29T00:00:00.000Z","strikedate":"2026-03-29T00:00:00.000Z","event_type":"Reported Airstrike","actor":"UNk","site_type":"military","siteStype":"","city":"Tuz Khurmatu","province":"Salah al Din","country":"Iraq","latitude":34.884339,"longitude":44.624969,"coord_type":"general town","source_1":"DNGTS: https://shafaq dot com/ar/????/????-????-??????-?????-?????-??????-?????-??????","source_2":"","sources":""}},{"type":"Feature","geometry":{"type":"Point","coordinates":[44.2364,32.91787999999999]},"properties":{"event_id":130,"data_org":"Green","post_date":"2026-03-30T00:00:00.000Z","pub_date":"2026-03-31T00:00:00.000Z","strikedate":"2026-03-30T00:00:00.000Z","event_type":"Reported Airstrike","actor":"UNK","site_type":"unknown","siteStype":"","city":"Jurf Sakhr","province":"Babil","country":"Iraq","latitude":32.91788,"longitude":44.2364,"coord_type":"general town","source_1":"DNGTS: https://shafaq dot com/ar/????/???-???-??????-???-?????-??-????-4","source_2":"","sources":""}},{"type":"Feature","geometry":{"type":"Point","coordinates":[43.961386,33.434068999999994]},"properties":{"event_id":131,"data_org":"Green","post_date":"2026-03-30T00:00:00.000Z","pub_date":"2026-03-31T00:00:00.000Z","strikedate":"2026-03-30T00:00:00.000Z","event_type":"Reported Airstrike","actor":"UNK","site_type":"military","siteStype":"military : hq","city":"Karma","province":"Anbar","country":"Iraq","latitude":33.434069,"longitude":43.961386,"coord_type":"general town","source_1":"DNGTS: https://shafaq dot com/ar/????/???-??????-?????-?????-??????-???-??????-???-????","source_2":"","sources":""}},{"type":"Feature","geometry":{"type":"Point","coordinates":[43.41563,36.22253099999999]},"properties":{"event_id":132,"data_org":"Green","post_date":"2026-03-31T00:00:00.000Z","pub_date":"2026-03-31T00:00:00.000Z","strikedate":"2026-03-31T00:00:00.000Z","event_type":"Reported Airstrike","actor":"UNK","site_type":"military","siteStype":"","city":"Balawat","province":"Ninewa","country":"Iraq","latitude":36.222531,"longitude":43.41563,"coord_type":"general town","source_1":"DNGTS: https://shafaq dot com/ar/????/????-????-??????-????-?????-????-??????-????-???-??????","source_2":"","sources":""}},{"type":"Feature","geometry":{"type":"Point","coordinates":[40.282531,33.03735699999999]},"properties":{"event_id":133,"data_org":"Green","post_date":"2026-03-31T00:00:00.000Z","pub_date":"2026-03-31T00:00:00.000Z","strikedate":"2026-03-31T00:00:00.000Z","event_type":"Reported Airstrike","actor":"UNK","site_type":"military","siteStype":"","city":"Rutba","province":"Anbar","country":"Iraq","latitude":33.037357,"longitude":40.282531,"coord_type":"general town","source_1":"https://x.com/Tammuz_Intel/status/2038962101863993611","source_2":"DNGTS: https://shafaq dot com/ar/????/?????-?????-????-????-??????-????-????-???-?-?????-???-??????","sources":"https://x.com/acceladealer/status/2038964480294490602?s=20; https://x.com/acceladealer/status/2038964485084348564?s=20; https://x.com/hey_itsmyturn/status/2038948381809135887?s=20; https://t.me/naya_foriraq/67126"}},{"type":"Feature","geometry":{"type":"Point","coordinates":[43.388333,35.87944399999999]},"properties":{"event_id":138,"data_org":"Green","post_date":"2026-04-02T00:00:00.000Z","pub_date":"2026-04-02T00:00:00.000Z","strikedate":"2026-04-02T00:00:00.000Z","event_type":"Reported Airstrike","actor":"UNK","site_type":"military","siteStype":"","city":"Sultan Abdullah","province":"Ninewa","country":"Iraq","latitude":35.879444,"longitude":43.388333,"coord_type":"general town","source_1":"DNGTS: https://shafaq dot com/ar/????/???-???-??????-?????-?????-?????-??-????-??????","source_2":"","sources":""}},{"type":"Feature","geometry":{"type":"Point","coordinates":[42.378056,34.139722]},"properties":{"event_id":139,"data_org":"Green","post_date":"2026-04-02T00:00:00.000Z","pub_date":"2026-04-02T00:00:00.000Z","strikedate":"2026-04-02T00:00:00.000Z","event_type":"Reported Airstrike","actor":"UNK","site_type":"military","siteStype":"","city":"Haditha","province":"Al Anbar","country":"Iraq","latitude":34.139722,"longitude":42.378056,"coord_type":"general town","source_1":"DNGTS: https://shafaq dot com/ar/????/???-???-????-???-57-??????-??????-??-??-????","source_2":"","sources":""}},{"type":"Feature","geometry":{"type":"Point","coordinates":[40.270799,33.03890799999999]},"properties":{"event_id":140,"data_org":"Green","post_date":"2026-04-03T00:00:00.000Z","pub_date":"2026-04-03T00:00:00.000Z","strikedate":"2026-04-03T00:00:00.000Z","event_type":"Reported Airstrike","actor":"UNK","site_type":"civilian","siteStype":"civilian : industrial","city":"","province":"Al Anbar","country":"Iraq","latitude":33.038908,"longitude":40.270799,"coord_type":"general town","source_1":"DNGTS: https://shafaq dot com/ar/????/???-???-??????-????-???-??-??????-????-??-????","source_2":"","sources":""}},{"type":"Feature","geometry":{"type":"Point","coordinates":[43.37931,36.35162700000001]},"properties":{"event_id":141,"data_org":"Green","post_date":"2026-04-02T00:00:00.000Z","pub_date":"2026-04-03T00:00:00.000Z","strikedate":"2026-04-02T00:00:00.000Z","event_type":"Reported Airstrike","actor":"UNK","site_type":"military","siteStype":"military : base","city":"Bartella","province":"Ninewa","country":"Iraq","latitude":36.351627,"longitude":43.37931,"coord_type":"general town","source_1":"DNGTS: https://shafaq dot com/ar/????/???-???-??????-????-?????-??????-??-???-?????","source_2":"","sources":""}},{"type":"Feature","geometry":{"type":"Point","coordinates":[41.16407,34.31693]},"properties":{"event_id":142,"data_org":"Green","post_date":"2026-04-04T00:00:00.000Z","pub_date":"2026-04-04T00:00:00.000Z","strikedate":"2026-04-04T00:00:00.000Z","event_type":"Reported Airstrike","actor":"UNK","site_type":"military","siteStype":"military : hq","city":"al Qaim","province":"Al Anbar","country":"Iraq","latitude":34.31693,"longitude":41.16407,"coord_type":"general town","source_1":"DNGTS: https://al-hashed.gov dot iq/2026/04/04/????-?????-??????-????-??????-??????-?/","source_2":"DNGTS: https://shafaq dot com/ar/????/????-?????-????????-???-?????-??????-????-??-????","sources":""}},{"type":"Feature","geometry":{"type":"Point","coordinates":[43.07325,36.40362999999999]},"properties":{"event_id":143,"data_org":"Green","post_date":"2026-04-04T00:00:00.000Z","pub_date":"2026-04-04T00:00:00.000Z","strikedate":"2026-04-04T00:00:00.000Z","event_type":"Reported Airstrike","actor":"UNK","site_type":"","siteStype":"","city":"Sharikhan al Sufla","province":"Ninewa","country":"Iraq","latitude":36.40363,"longitude":43.07325,"coord_type":"general town","source_1":"DNGTS: https://shafaq dot com/ar/????/???-???-??????-?????-???????-?????-??????","source_2":"","sources":""}},{"type":"Feature","geometry":{"type":"Point","coordinates":[43.489766,34.92970199999999]},"properties":{"event_id":144,"data_org":"Green","post_date":"2026-04-04T00:00:00.000Z","pub_date":"2026-04-05T00:00:00.000Z","strikedate":"2026-04-04T00:00:00.000Z","event_type":"Reported Airstrike","actor":"UNK","site_type":"military","siteStype":"","city":"al Siniya","province":"Saladin","country":"Iraq","latitude":34.929702,"longitude":43.489766,"coord_type":"general town","source_1":"DNGtS: https://shafaq dot com/ar/????/?????-??????-??-??-???-??-??????-?????-31-??-???????-?????-?????","source_2":"","sources":""}},{"type":"Feature","geometry":{"type":"Point","coordinates":[44.620785,34.88114]},"properties":{"event_id":145,"data_org":"Green","post_date":"2026-04-04T00:00:00.000Z","pub_date":"2026-04-05T00:00:00.000Z","strikedate":"2026-04-05T00:00:00.000Z","event_type":"Reported Airstrike","actor":"UNK","site_type":"military","siteStype":"","city":"Tuz Khurmatu","province":"Saladin","country":"Iraq","latitude":34.88114,"longitude":44.620785,"coord_type":"general town","source_1":"DNGTTS: https://shafaq dot com/ar/????/???-???-??????-????-?????-??????-?????-?????","source_2":"DNGTS: https://al-hashed.gov dot iq/2026/04/05/?????-???-?????-??????-?????-??????-??/","sources":""}},{"type":"Feature","geometry":{"type":"Point","coordinates":[43.489766,34.92970199999999]},"properties":{"event_id":146,"data_org":"Green","post_date":"2026-04-05T00:00:00.000Z","pub_date":"2026-04-05T00:00:00.000Z","strikedate":"2026-04-05T00:00:00.000Z","event_type":"Reported Airstrike","actor":"UNK","site_type":"military","siteStype":"","city":"al Siniya","province":"Saladin","country":"Iraq","latitude":34.929702,"longitude":43.489766,"coord_type":"general town","source_1":"DNGTS: https://shafaq dot com/ar/????/??????-??????-????????-????-?????-??????-??-????","source_2":"DNGTS: https://al-hashed.gov dot iq/2026/04/05/?????-????-??????-??????-??????-31-???/","sources":""}},{"type":"Feature","geometry":{"type":"Point","coordinates":[44.585549,34.726549]},"properties":{"event_id":147,"data_org":"Green","post_date":"2026-04-04T00:00:00.000Z","pub_date":"2026-04-05T00:00:00.000Z","strikedate":"2026-04-04T00:00:00.000Z","event_type":"Reported Airstrike","actor":"UNK","site_type":"military","siteStype":"","city":"Amerli","province":"Saladin","country":"Iraq","latitude":34.726549,"longitude":44.585549,"coord_type":"general town","source_1":"DNGTS: https://al-hashed.gov dot iq/2026/04/05/????-???????-??????-??????-?????-52-??-?/","source_2":"","sources":""}},{"type":"Feature","geometry":{"type":"Point","coordinates":[44.620785,34.88114]},"properties":{"event_id":148,"data_org":"Green","post_date":"2026-04-05T00:00:00.000Z","pub_date":"2026-04-06T00:00:00.000Z","strikedate":"2026-04-05T00:00:00.000Z","event_type":"Reported Airstrike","actor":"UNK","site_type":"military","siteStype":"military : hq","city":"Tuz Khurmatu","province":"Saladin","country":"Iraq","latitude":34.88114,"longitude":44.620785,"coord_type":"general town","source_1":"DNGTS: https://shafaq dot com/ar/????/??????-????-24-????-?????-????-????-????-?????-????-????-?????","source_2":"","sources":""}},{"type":"Feature","geometry":{"type":"Point","coordinates":[41.108121000000004,34.354403]},"properties":{"event_id":149,"data_org":"Green","post_date":"2026-04-06T00:00:00.000Z","pub_date":"2026-04-07T00:00:00.000Z","strikedate":"2026-04-06T00:00:00.000Z","event_type":"Reported Airstrike","actor":"UNK","site_type":"military","siteStype":"","city":"Akashat","province":"al Anbar","country":"Iraq","latitude":34.354403,"longitude":41.108121,"coord_type":"exact","source_1":"https://x.com/Tammuz_Intel/status/2041268835634794563","source_2":"DNGTS: https://shafaq dot com/ar/????/?????-????-??????-?????-????-??????-?????-??????-??-??-????; https://shafaq dot com/ar/????/???-???-??????-????-?????-??????-??-??-????; https://x.com/obretix/status/2043282615680012298?s=20","sources":""}},{"type":"Feature","geometry":{"type":"Point","coordinates":[44.585549,34.726549]},"properties":{"event_id":150,"data_org":"Green","post_date":"2026-04-07T00:00:00.000Z","pub_date":"2026-04-07T00:00:00.000Z","strikedate":"2026-04-07T00:00:00.000Z","event_type":"Reported Airstrike","actor":"UNK","site_type":"military","siteStype":"military : hq","city":"Amirli","province":"Saladin","country":"Iraq","latitude":34.726549,"longitude":44.585549,"coord_type":"general town","source_1":"DNGTS: https://shafaq dot com/ar/????/???????-???-?????-?-????-????-???-????-?????-???-????-???????-?-???-????-???????","source_2":"","sources":""}},{"type":"Feature","geometry":{"type":"Point","coordinates":[44.328126,35.30257699999999]},"properties":{"event_id":151,"data_org":"Green","post_date":"2026-04-07T00:00:00.000Z","pub_date":"2026-04-07T00:00:00.000Z","strikedate":"2026-04-07T00:00:00.000Z","event_type":"Reported Airstrike","actor":"UNK","site_type":"military","siteStype":"","city":"Taza","province":"Kirkuk","country":"Iraq","latitude":35.302577,"longitude":44.328126,"coord_type":"general town","source_1":"DNGTS: https://shafaq dot com/ar/????/??????-??????-????????-??????-?????-??????-?????-?????","source_2":"","sources":""}},{"type":"Feature","geometry":{"type":"Point","coordinates":[44.27701400000001,35.24579799999999]},"properties":{"event_id":152,"data_org":"Green","post_date":"2026-04-07T00:00:00.000Z","pub_date":"2026-04-07T00:00:00.000Z","strikedate":"2026-04-07T00:00:00.000Z","event_type":"Reported Airstrike","actor":"UNK","site_type":"military","siteStype":"","city":"Bashir","province":"Kirkuk","country":"Iraq","latitude":35.245798,"longitude":44.277014,"coord_type":"general town","source_1":"DNGTS: https://shafaq dot com/ar/????/??????-??????-????????-??????-?????-??????-?????-?????","source_2":"","sources":""}},{"type":"Feature","geometry":{"type":"Point","coordinates":[47.767496,30.23504799999999]},"properties":{"event_id":0,"data_org":"Green","post_date":"2026-04-07T00:00:00.000Z","pub_date":"2026-04-07T00:00:00.000Z","strikedate":"2026-04-07T00:00:00.000Z","event_type":"Reported Airstrike","actor":"UNK","site_type":"","siteStype":"","city":"Khor al Zubair","province":"Basra","country":"Iraq","latitude":30.235048,"longitude":47.767496,"coord_type":"general town","source_1":"DNGTS: https://shafaq dot com/ar/%D8%A3%D9%85%D9%80%D9%86/%D8%AA%D9%81%D8%A7%D8%B5%D9%8A%D9%84-%D8%AD%D8%B5%D8%B1%D9%8A%D8%A9-%D9%84%D9%87%D8%AC%D9%88%D9%85-%D8%A7%D9%84%D8%A8%D8%B5%D8%B1%D8%A9-%D8%B5%D8%A7%D8%B1%D9%88%D8%AE-%D9%85%D9%8A%D8%B1%D9%83%D9%8","source_2":"https://www.reuters.com/world/middle-east/least-three-killed-after-rockets-launched-kuwait-hit-house-near-iraqs-basra-2026-04-07/","sources":""}},{"type":"Feature","geometry":{"type":"Point","coordinates":[44.077117,35.669816]},"properties":{"event_id":153,"data_org":"Green","post_date":"2026-04-06T00:00:00.000Z","pub_date":"2026-04-07T00:00:00.000Z","strikedate":"2026-04-07T00:00:00.000Z","event_type":"Reported Airstrike","actor":"UNK","site_type":"military","siteStype":"military : hq","city":"Dibis","province":"Kirkuk","country":"Iraq","latitude":35.669816,"longitude":44.077117,"coord_type":"general town","source_1":"DNGTS: https://shafaq dot com/ar/????/???-???-??????-????-?????-??????-??-?????","source_2":"","sources":""}},{"type":"Feature","geometry":{"type":"Point","coordinates":[44.521021,33.840008]},"properties":{"event_id":154,"data_org":"Green","post_date":"2026-04-07T00:00:00.000Z","pub_date":"2026-04-07T00:00:00.000Z","strikedate":"2026-04-07T00:00:00.000Z","event_type":"Report of Explosion with Footage","actor":"US","site_type":"","siteStype":"military : hq","city":"Khalis","province":"Diyala","country":"Iraq","latitude":33.840008,"longitude":44.521021,"coord_type":"general town","source_1":"https://x.com/hey_itsmyturn/status/2041571628249755780?s=20","source_2":"DNTS: https://shafaq dot com/ar/%D8%A3%D9%85%D9%80%D9%86/%D9%82%D8%B5%D9%81-%D8%AC%D9%88%D9%8A-%D9%8A%D8%B3%D8%AA%D9%87%D8%AF%D9%81-%D9%85%D9%82%D8%B1%D8%A7-%D9%84%D9%84%D8%AD%D8%B4%D8%AF-%D8%A7%D9%84%D8%B4%D8%B9%D8%A8%D9%8A-%D9%81%D9%8A-%D8%AF%D9%8A%D8%","sources":""}},{"type":"Feature","geometry":{"type":"Point","coordinates":[44.15272,33.464734]},"properties":{"event_id":157,"data_org":"Green","post_date":"2026-04-07T00:00:00.000Z","pub_date":"2026-04-08T00:00:00.000Z","strikedate":"2026-04-07T00:00:00.000Z","event_type":"Reported Airstrike","actor":"UNK","site_type":"","siteStype":"","city":"Baghdad","province":"Baghdad","country":"Iraq","latitude":33.464734,"longitude":44.15272,"coord_type":"general neighborhood","source_1":"https://x.com/Tammuz_Intel/status/2041619684894667152?s=20","source_2":"DNGTS: https://shafaq dot com/ar/????/????-????-????????-????-??????-????-????-?????-?????","sources":""}},{"type":"Feature","geometry":{"type":"Point","coordinates":[44.430543,33.348623]},"properties":{"event_id":155,"data_org":"Green","post_date":"2026-04-07T00:00:00.000Z","pub_date":"2026-04-08T00:00:00.000Z","strikedate":"2026-04-07T00:00:00.000Z","event_type":"Report of Explosion with Footage","actor":"UNK","site_type":"","siteStype":"","city":"Baghdad","province":"Baghdad","country":"Iraq","latitude":33.348623,"longitude":44.430543,"coord_type":"general neighborhood","source_1":"https://x.com/Tammuz_Intel/status/2041622109407912354?s=20","source_2":"","sources":""}},{"type":"Feature","geometry":{"type":"Point","coordinates":[44.295691,33.468109]},"properties":{"event_id":159,"data_org":"Green","post_date":"2026-04-07T00:00:00.000Z","pub_date":"2026-04-08T00:00:00.000Z","strikedate":"2026-04-07T00:00:00.000Z","event_type":"Reported Airstrike","actor":"US","site_type":"","siteStype":"military : hq","city":"Taji","province":"Saladin","country":"Iraq","latitude":33.468109,"longitude":44.295691,"coord_type":"general neighborhood","source_1":"https://x.com/LizHurra/status/2041634640675361189?s=20","source_2":"","sources":""}},{"type":"Feature","geometry":{"type":"Point","coordinates":[44.076715,35.66927600000001]},"properties":{"event_id":169,"data_org":"Green","post_date":"2026-07-28T00:00:00.000Z","pub_date":"2026-07-29T00:00:00.000Z","strikedate":"2026-07-28T00:00:00.000Z","event_type":"Reported Airstrike","actor":"US/KSA","site_type":"","siteStype":"","city":"Dibis","province":"Kirkuk","country":"Iraq","latitude":35.669276,"longitude":44.076715,"coord_type":"general town","source_1":"https://x.com/hey_itsmyturn/status/2082271147932991738?s=20","source_2":"","sources":"DNGTS: https://rudaw dot net/sorani/categories/iraq/1866113 ; dngts: https://al-hashed.gov dot iq/2026/07/29/????-??-???????-????-??????-???????-??/"}},{"type":"Feature","geometry":{"type":"Point","coordinates":[43.379722,36.352222]},"properties":{"event_id":170,"data_org":"Green","post_date":"2026-07-28T00:00:00.000Z","pub_date":"2026-07-29T00:00:00.000Z","strikedate":"2026-07-28T00:00:00.000Z","event_type":"Reported Airstrike","actor":"US/KSA","site_type":"","siteStype":"","city":"Bartella","province":"Ninewa","country":"Iraq","latitude":36.352222,"longitude":43.379722,"coord_type":"general town","source_1":"https://x.com/hey_itsmyturn/status/2082265935637786949?s=20","source_2":"DNGTS: https://www.shafaq dot com/ar/?????/?????-?????-???-???????-????-??????-???????-????-??-????-????????","sources":""}},{"type":"Feature","geometry":{"type":"Point","coordinates":[44.111126629999994,32.686977999999996]},"properties":{"event_id":178,"data_org":"Green","post_date":"2026-07-29T00:00:00.000Z","pub_date":"2026-07-29T00:00:00.000Z","strikedate":"2026-07-29T00:00:00.000Z","event_type":"Reported Airstrike","actor":"US/KSA","site_type":"","siteStype":"","city":"al Awn","province":"Karbala","country":"Iraq","latitude":32.686978,"longitude":44.11112663,"coord_type":"general town","source_1":"DNGTS: https://shafaq dot com/ar/????/????-????-??????-?????-??????-???-????-?????","source_2":"https://rudaw dot net/sorani/categories/iraq/1866113","sources":"https://almadapaper dot net/445912/ ; DNGTS: https://almadapaper dot net/445895/ ; https://almadapaper dot net/445888/"}},{"type":"Feature","geometry":{"type":"Point","coordinates":[47.57653884,30.790047]},"properties":{"event_id":179,"data_org":"Green","post_date":"2026-07-28T00:00:00.000Z","pub_date":"2026-07-29T00:00:00.000Z","strikedate":"2026-07-28T00:00:00.000Z","event_type":"Reported Airstrike","actor":"US/KSA","site_type":"","siteStype":"","city":"al Dayr","province":"Basra","country":"Iraq","latitude":30.790047,"longitude":47.57653884,"coord_type":"general town","source_1":"DNGTS: https://shafaq dot com/ar/????/?????-?-??-????-?????-??-??????-????-?????-?????-??-??????","source_2":"https://x.com/vvanwilgenburg/status/2082258710127099917 ; https://www.facebook.com/permalink.php? story_fbid=pfbid02NH7rW5nmiv1HiG2PNztvG3pBQRx13t1L2HCbf9iT8AzN9XeQ7Ekf389dSVo7ymtSl&id=61576881309258","sources":"https://rudaw dot net/sorani/categories/iraq/1866100"}},{"type":"Feature","geometry":{"type":"Point","coordinates":[44.573333,34.063610999999995]},"properties":{"event_id":180,"data_org":"Green","post_date":"2026-07-29T00:00:00.000Z","pub_date":"2026-07-29T00:00:00.000Z","strikedate":"2026-07-29T00:00:00.000Z","event_type":"Reported Airstrike","actor":"US/KSA","site_type":"","siteStype":"","city":"Khalis","province":"Diyala","country":"Iraq","latitude":34.063611,"longitude":44.573333,"coord_type":"exact","source_1":"DNGTS: https://baghdadtoday dot news/304054-24.html","source_2":"https://x.com/alssaanetwork/status/2082388937591365679","sources":"https://www.facebook.com/K24English/posts/in-photos-destroyed-headquarters-of-pmfs-diyala-operations-command-near-khalis-f/1486004066888221/"}},{"type":"Feature","geometry":{"type":"Point","coordinates":[44.936944,33.978610999999994]},"properties":{"event_id":181,"data_org":"Green","post_date":"2026-07-29T00:00:00.000Z","pub_date":"2026-07-29T00:00:00.000Z","strikedate":"2026-07-29T00:00:00.000Z","event_type":"Reported Airstrike","actor":"US/KSA","site_type":"","siteStype":"","city":"Miqdadiya","province":"Diyala","country":"Iraq","latitude":33.978611,"longitude":44.936944,"coord_type":"general town","source_1":"DNGTS: https://baghdadtoday dot news/304054-24.html","source_2":"DNGTS: https://baghdadtoday dot news/304053-8.html","sources":""}},{"type":"Feature","geometry":{"type":"Point","coordinates":[44.585549,34.726549]},"properties":{"event_id":182,"data_org":"Green","post_date":"2026-07-29T00:00:00.000Z","pub_date":"2026-07-29T00:00:00.000Z","strikedate":"2026-07-29T00:00:00.000Z","event_type":"Reported Airstrike","actor":"US/KSA","site_type":"","siteStype":"","city":"Amerli","province":"Saladin","country":"Iraq","latitude":34.726549,"longitude":44.585549,"coord_type":"general town","source_1":"DNGTS: https://www.shafaq dot com/ar/?????/?????-?????-???-???????-????-??????-???????-????-??-????-????????","source_2":"dngts: https://rudaw dot net/sorani/categories/iraq/1866080","sources":""}},{"type":"Feature","geometry":{"type":"Point","coordinates":[44.772462999999995,32.92559599999999]},"properties":{"event_id":185,"data_org":"Green","post_date":"2026-07-29T00:00:00.000Z","pub_date":"2026-07-29T00:00:00.000Z","strikedate":"2026-07-29T00:00:00.000Z","event_type":"Reported Airstrike","actor":"US/KSA","site_type":"","siteStype":"","city":"al Suwaira","province":"Wasit","country":"Iraq","latitude":32.925596,"longitude":44.772463,"coord_type":"general town","source_1":"https://rudaw dot net/sorani/categories/iraq/1866080","source_2":"https://rudaw dot net/sorani/categories/iraq/1866113","sources":"dngts: https://almadapaper dot net/445912/"}},{"type":"Feature","geometry":{"type":"Point","coordinates":[44.2364,32.91787999999999]},"properties":{"event_id":186,"data_org":"Green","post_date":"2026-07-29T00:00:00.000Z","pub_date":"2026-07-29T00:00:00.000Z","strikedate":"2026-07-29T00:00:00.000Z","event_type":"Reported Airstrike","actor":"US/KSA","site_type":"","siteStype":"","city":"Jurf Sakhr","province":"Babil","country":"Iraq","latitude":32.91788,"longitude":44.2364,"coord_type":"general town","source_1":"https://almadapaper dot net/445912/ ; DNGTS: https://almadapaper dot net/445895/ ; https://almadapaper dot net/445888/","source_2":"","sources":""}},{"type":"Feature","geometry":{"type":"Point","coordinates":[43.379722,36.352222]},"properties":{"event_id":187,"data_org":"Green","post_date":"2026-07-28T00:00:00.000Z","pub_date":"2026-07-29T00:00:00.000Z","strikedate":"2026-07-28T00:00:00.000Z","event_type":"Reported Airstrike","actor":"US/KSA","site_type":"","siteStype":"","city":"Bartella","province":"Ninewa","country":"Iraq","latitude":36.352222,"longitude":43.379722,"coord_type":"general town","source_1":"https://x.com/hey_itsmyturn/status/2082265935637786949?s=20","source_2":"DNGTS: https://www.shafaq dot com/ar/?????/?????-?????-???-???????-????-??????-???????-????-??-????-????????","sources":""}}],"fileName":"US and Israeli Strikes in Iraq Evening of September 09, 2026"}